[{"postcode":"100","name":"台湾省","nameen":"TAIWAN","children":[{"postcode":"100","name":"台北市","parentcode":"100"}]},{"postcode":"110000","name":"北京市","nameen":"EN","children":[{"postcode":"100000","name":"朝阳区","parentcode":"110000"},{"postcode":"100005","name":"东城区","parentcode":"110000"},{"postcode":"100009","name":"西城区","parentcode":"110000"},{"postcode":"100036","name":"海淀区","parentcode":"110000"},{"postcode":"100040","name":"石景山区","parentcode":"110000"},{"postcode":"100050","name":"宣武区","parentcode":"110000"},{"postcode":"100051","name":"崇文区","parentcode":"110000"},{"postcode":"100068","name":"丰台区","parentcode":"110000"},{"postcode":"101100","name":"通州区","parentcode":"110000"},{"postcode":"101200","name":"平谷区","parentcode":"110000"},{"postcode":"101300","name":"顺义区","parentcode":"110000"},{"postcode":"101400","name":"怀柔区","parentcode":"110000"},{"postcode":"101500","name":"密云区","parentcode":"110000"},{"postcode":"102100","name":"延庆区","parentcode":"110000"},{"postcode":"102200","name":"昌平区","parentcode":"110000"},{"postcode":"102300","name":"门头沟区","parentcode":"110000"},{"postcode":"102400","name":"房山区","parentcode":"110000"},{"postcode":"102600","name":"大兴区","parentcode":"110000"},{"postcode":"110100","name":"北京市","parentcode":"110000"}]},{"postcode":"120000","name":"天津市","nameen":"EN","children":[{"postcode":"120100","name":"天津市","parentcode":"120000"},{"postcode":"120102","name":"河东市","parentcode":"120000"},{"postcode":"120103","name":"河西市","parentcode":"120000"},{"postcode":"120104","name":"南开市","parentcode":"120000"},{"postcode":"120106","name":"红桥市","parentcode":"120000"},{"postcode":"120107","name":"塘沽市","parentcode":"120000"},{"postcode":"120109","name":"大港市","parentcode":"120000"},{"postcode":"120111","name":"西青市","parentcode":"120000"},{"postcode":"120112","name":"津南市","parentcode":"120000"},{"postcode":"120113","name":"北辰市","parentcode":"120000"},{"postcode":"120114","name":"武清市","parentcode":"120000"},{"postcode":"120115","name":"宝坻市","parentcode":"120000"},{"postcode":"120221","name":"宁河市","parentcode":"120000"},{"postcode":"120223","name":"静海市","parentcode":"120000"},{"postcode":"120225","name":"蓟县市","parentcode":"120000"}]},{"postcode":"130000","name":"河北省","nameen":"EN","children":[{"postcode":"130100","name":"石家庄市","parentcode":"130000"},{"postcode":"130181","name":"辛集市","parentcode":"130000"},{"postcode":"130182","name":"藁城市","parentcode":"130000"},{"postcode":"130183","name":"晋州市","parentcode":"130000"},{"postcode":"130184","name":"新乐市","parentcode":"130000"},{"postcode":"130185","name":"鹿泉市","parentcode":"130000"},{"postcode":"130200","name":"唐山市","parentcode":"130000"},{"postcode":"130281","name":"遵化市","parentcode":"130000"},{"postcode":"130283","name":"迁安市","parentcode":"130000"},{"postcode":"130300","name":"秦皇岛市","parentcode":"130000"},{"postcode":"130400","name":"邯郸市","parentcode":"130000"},{"postcode":"130481","name":"武安市","parentcode":"130000"},{"postcode":"130500","name":"邢台市","parentcode":"130000"},{"postcode":"130581","name":"南宫市","parentcode":"130000"},{"postcode":"130582","name":"沙河市","parentcode":"130000"},{"postcode":"130600","name":"保定市","parentcode":"130000"},{"postcode":"130681","name":"涿州市","parentcode":"130000"},{"postcode":"130682","name":"定州市","parentcode":"130000"},{"postcode":"130683","name":"安国市","parentcode":"130000"},{"postcode":"130684","name":"高碑店市","parentcode":"130000"},{"postcode":"130700","name":"张家口市","parentcode":"130000"},{"postcode":"130800","name":"承德市","parentcode":"130000"},{"postcode":"130900","name":"沧州市","parentcode":"130000"},{"postcode":"130981","name":"泊头市","parentcode":"130000"},{"postcode":"130982","name":"任丘市","parentcode":"130000"},{"postcode":"130983","name":"黄骅市","parentcode":"130000"},{"postcode":"130984","name":"河间市","parentcode":"130000"},{"postcode":"131000","name":"廊坊市","parentcode":"130000"},{"postcode":"131081","name":"霸州市","parentcode":"130000"},{"postcode":"131082","name":"三河市","parentcode":"130000"},{"postcode":"131100","name":"衡水市","parentcode":"130000"},{"postcode":"131181","name":"冀州市","parentcode":"130000"},{"postcode":"131182","name":"深州市","parentcode":"130000"},{"postcode":"253800","name":"故城市","parentcode":"130000"},{"postcode":"50300","name":"井陉市","parentcode":"130000"},{"postcode":"50400","name":"平山市","parentcode":"130000"},{"postcode":"50500","name":"灵寿市","parentcode":"130000"},{"postcode":"50600","name":"行唐市","parentcode":"130000"},{"postcode":"50800","name":"正定市","parentcode":"130000"},{"postcode":"51130","name":"元氏市","parentcode":"130000"},{"postcode":"51230","name":"赞皇市","parentcode":"130000"},{"postcode":"51330","name":"高邑市","parentcode":"130000"},{"postcode":"51430","name":"栾城市","parentcode":"130000"},{"postcode":"51530","name":"赵县市","parentcode":"130000"},{"postcode":"51730","name":"新河市","parentcode":"130000"},{"postcode":"52460","name":"无极市","parentcode":"130000"},{"postcode":"52500","name":"深泽市","parentcode":"130000"},{"postcode":"53100","name":"枣强市","parentcode":"130000"},{"postcode":"53300","name":"武强市","parentcode":"130000"},{"postcode":"53500","name":"景县市","parentcode":"130000"},{"postcode":"53601","name":"安平市","parentcode":"130000"},{"postcode":"53900","name":"饶阳市","parentcode":"130000"},{"postcode":"54200","name":"内丘市","parentcode":"130000"},{"postcode":"54299","name":"内邱市","parentcode":"130000"},{"postcode":"54300","name":"临城市","parentcode":"130000"},{"postcode":"54400","name":"南和市","parentcode":"130000"},{"postcode":"54600","name":"广宗市","parentcode":"130000"},{"postcode":"54700","name":"威县市","parentcode":"130000"},{"postcode":"54800","name":"清河市","parentcode":"130000"},{"postcode":"54900","name":"临西市","parentcode":"130000"},{"postcode":"551500","name":"任县市","parentcode":"130000"},{"postcode":"55250","name":"巨鹿市","parentcode":"130000"},{"postcode":"55350","name":"隆尧市","parentcode":"130000"},{"postcode":"55500","name":"宁晋市","parentcode":"130000"},{"postcode":"56501","name":"磁县市","parentcode":"130000"},{"postcode":"56600","name":"临漳市","parentcode":"130000"},{"postcode":"56800","name":"魏县市","parentcode":"130000"},{"postcode":"56900","name":"大名市","parentcode":"130000"},{"postcode":"57150","name":"永年市","parentcode":"130000"},{"postcode":"57250","name":"曲周市","parentcode":"130000"},{"postcode":"57750","name":"馆陶市","parentcode":"130000"},{"postcode":"61401","name":"孟村市","parentcode":"130000"},{"postcode":"61600","name":"东光市","parentcode":"130000"},{"postcode":"61800","name":"吴桥市","parentcode":"130000"},{"postcode":"62250","name":"献县市","parentcode":"130000"},{"postcode":"62350","name":"肃宁市","parentcode":"130000"},{"postcode":"63200","name":"唐海市","parentcode":"130000"},{"postcode":"63500","name":"滦南市","parentcode":"130000"},{"postcode":"63600","name":"乐亭市","parentcode":"130000"},{"postcode":"63700","name":"滦县市","parentcode":"130000"},{"postcode":"64100","name":"玉田市","parentcode":"130000"},{"postcode":"64300","name":"迁西市","parentcode":"130000"},{"postcode":"65301","name":"大厂市","parentcode":"130000"},{"postcode":"65400","name":"香河市","parentcode":"130000"},{"postcode":"65500","name":"固安市","parentcode":"130000"},{"postcode":"65600","name":"永清市","parentcode":"130000"},{"postcode":"65901","name":"大城县","parentcode":"130000"},{"postcode":"66300","name":"抚宁市","parentcode":"130000"},{"postcode":"66400","name":"卢龙市","parentcode":"130000"},{"postcode":"66500","name":"青龙市","parentcode":"130000"},{"postcode":"66600","name":"昌黎市","parentcode":"130000"},{"postcode":"71100","name":"清苑市","parentcode":"130000"},{"postcode":"71400","name":"蠡县市","parentcode":"130000"},{"postcode":"71500","name":"高阳市","parentcode":"130000"},{"postcode":"71600","name":"安新市","parentcode":"130000"},{"postcode":"71700","name":"容城市","parentcode":"130000"},{"postcode":"71800","name":"雄县市","parentcode":"130000"},{"postcode":"72150","name":"满城市","parentcode":"130000"},{"postcode":"72250","name":"顺平市","parentcode":"130000"},{"postcode":"72350","name":"唐县市","parentcode":"130000"},{"postcode":"72550","name":"徐水市","parentcode":"130000"},{"postcode":"73004","name":"定州","parentcode":"130000"},{"postcode":"73100","name":"曲阳市","parentcode":"130000"},{"postcode":"74100","name":"涞水市","parentcode":"130000"},{"postcode":"74200","name":"易县市","parentcode":"130000"},{"postcode":"74300","name":"涞源市","parentcode":"130000"},{"postcode":"75100","name":"宣化市","parentcode":"130000"},{"postcode":"75501","name":"赤城市","parentcode":"130000"},{"postcode":"75713","name":"蔚县市","parentcode":"130000"},{"postcode":"76250","name":"万全市","parentcode":"130000"}]},{"postcode":"140000","name":"山西省","nameen":"EN","children":[{"postcode":"140100","name":"太原市","parentcode":"140000"},{"postcode":"140105","name":"小店市","parentcode":"140000"},{"postcode":"140121","name":"清徐市","parentcode":"140000"},{"postcode":"140123","name":"娄烦市","parentcode":"140000"},{"postcode":"140181","name":"古交市","parentcode":"140000"},{"postcode":"140200","name":"大同市","parentcode":"140000"},{"postcode":"140221","name":"阳高市","parentcode":"140000"},{"postcode":"140222","name":"天镇市","parentcode":"140000"},{"postcode":"140224","name":"灵丘市","parentcode":"140000"},{"postcode":"140225","name":"浑源市","parentcode":"140000"},{"postcode":"140226","name":"左云市","parentcode":"140000"},{"postcode":"140300","name":"阳泉市","parentcode":"140000"},{"postcode":"140321","name":"平定市","parentcode":"140000"},{"postcode":"140400","name":"长治市","parentcode":"140000"},{"postcode":"140423","name":"襄垣市","parentcode":"140000"},{"postcode":"140429","name":"武乡市","parentcode":"140000"},{"postcode":"140431","name":"沁源市","parentcode":"140000"},{"postcode":"140481","name":"潞城市","parentcode":"140000"},{"postcode":"140500","name":"晋城市","parentcode":"140000"},{"postcode":"140521","name":"沁水市","parentcode":"140000"},{"postcode":"140522","name":"阳城市","parentcode":"140000"},{"postcode":"140525","name":"泽州市","parentcode":"140000"},{"postcode":"140581","name":"高平市","parentcode":"140000"},{"postcode":"140600","name":"朔州市","parentcode":"140000"},{"postcode":"140621","name":"山阴市","parentcode":"140000"},{"postcode":"140622","name":"应县市","parentcode":"140000"},{"postcode":"140623","name":"右玉市","parentcode":"140000"},{"postcode":"140624","name":"怀仁市","parentcode":"140000"},{"postcode":"140700","name":"晋中市","parentcode":"140000"},{"postcode":"140702","name":"榆次市","parentcode":"140000"},{"postcode":"140722","name":"左权市","parentcode":"140000"},{"postcode":"140725","name":"寿阳市","parentcode":"140000"},{"postcode":"140726","name":"太谷市","parentcode":"140000"},{"postcode":"140727","name":"祁县市","parentcode":"140000"},{"postcode":"140728","name":"平遥市","parentcode":"140000"},{"postcode":"140729","name":"灵石市","parentcode":"140000"},{"postcode":"140781","name":"介休市","parentcode":"140000"},{"postcode":"140800","name":"运城市","parentcode":"140000"},{"postcode":"140822","name":"万荣市","parentcode":"140000"},{"postcode":"140828","name":"夏县市","parentcode":"140000"},{"postcode":"140830","name":"芮城市","parentcode":"140000"},{"postcode":"140881","name":"永济市","parentcode":"140000"},{"postcode":"140882","name":"河津市","parentcode":"140000"},{"postcode":"140900","name":"忻州市","parentcode":"140000"},{"postcode":"140921","name":"定襄市","parentcode":"140000"},{"postcode":"140922","name":"五台市","parentcode":"140000"},{"postcode":"140923","name":"代县市","parentcode":"140000"},{"postcode":"140924","name":"繁峙市","parentcode":"140000"},{"postcode":"140926","name":"静乐市","parentcode":"140000"},{"postcode":"140928","name":"五寨市","parentcode":"140000"},{"postcode":"140931","name":"保德市","parentcode":"140000"},{"postcode":"140981","name":"原平市","parentcode":"140000"},{"postcode":"141000","name":"临汾市","parentcode":"140000"},{"postcode":"141022","name":"翼城市","parentcode":"140000"},{"postcode":"141024","name":"洪洞市","parentcode":"140000"},{"postcode":"141025","name":"古县市","parentcode":"140000"},{"postcode":"141029","name":"乡宁市","parentcode":"140000"},{"postcode":"141081","name":"侯马市","parentcode":"140000"},{"postcode":"141082","name":"霍州市","parentcode":"140000"},{"postcode":"141100","name":"吕梁市","parentcode":"140000"},{"postcode":"141102","name":"离石市","parentcode":"140000"},{"postcode":"141121","name":"文水市","parentcode":"140000"},{"postcode":"141122","name":"交城市","parentcode":"140000"},{"postcode":"141123","name":"兴县市","parentcode":"140000"},{"postcode":"141124","name":"临县市","parentcode":"140000"},{"postcode":"141125","name":"柳林市","parentcode":"140000"},{"postcode":"141126","name":"石楼市","parentcode":"140000"},{"postcode":"141127","name":"岚县市","parentcode":"140000"},{"postcode":"141128","name":"方山市","parentcode":"140000"},{"postcode":"141129","name":"中阳市","parentcode":"140000"},{"postcode":"141130","name":"交口市","parentcode":"140000"},{"postcode":"141181","name":"孝义市","parentcode":"140000"},{"postcode":"141182","name":"汾阳市","parentcode":"140000"},{"postcode":"44100","name":"临猗县","parentcode":"140000"},{"postcode":"45199","name":"盂县","parentcode":"140000"}]},{"postcode":"150000","name":"内蒙古自治区","nameen":"EN","children":[{"postcode":"150100","name":"呼和浩特市","parentcode":"150000"},{"postcode":"150122","name":"托克托市","parentcode":"150000"},{"postcode":"150124","name":"清水河市","parentcode":"150000"},{"postcode":"150125","name":"武川市","parentcode":"150000"},{"postcode":"150200","name":"包头市","parentcode":"150000"},{"postcode":"150300","name":"乌海市","parentcode":"150000"},{"postcode":"150400","name":"赤峰市","parentcode":"150000"},{"postcode":"150500","name":"通辽市","parentcode":"150000"},{"postcode":"150525","name":"奈曼旗","parentcode":"150000"},{"postcode":"150581","name":"霍林郭勒市","parentcode":"150000"},{"postcode":"150600","name":"鄂尔多斯市","parentcode":"150000"},{"postcode":"150602","name":"东胜市","parentcode":"150000"},{"postcode":"150621","name":"达拉特旗","parentcode":"150000"},{"postcode":"150622","name":"准格尔旗","parentcode":"150000"},{"postcode":"150623","name":"鄂托克前旗","parentcode":"150000"},{"postcode":"150627","name":"伊金霍洛旗","parentcode":"150000"},{"postcode":"150700","name":"呼伦贝尔市","parentcode":"150000"},{"postcode":"150702","name":"海拉尔市","parentcode":"150000"},{"postcode":"150781","name":"满洲里市","parentcode":"150000"},{"postcode":"150782","name":"牙克石市","parentcode":"150000"},{"postcode":"150783","name":"扎兰屯市","parentcode":"150000"},{"postcode":"150784","name":"额尔古纳市","parentcode":"150000"},{"postcode":"150785","name":"根河市","parentcode":"150000"},{"postcode":"150800","name":"巴彦淖尔市","parentcode":"150000"},{"postcode":"150802","name":"临河市","parentcode":"150000"},{"postcode":"150821","name":"五原市","parentcode":"150000"},{"postcode":"150825","name":"乌拉特后旗","parentcode":"150000"},{"postcode":"150900","name":"乌兰察布市","parentcode":"150000"},{"postcode":"150902","name":"集宁市","parentcode":"150000"},{"postcode":"150923","name":"商都市","parentcode":"150000"},{"postcode":"150981","name":"丰镇市","parentcode":"150000"},{"postcode":"15100","name":"巴彦淖尔","parentcode":"150000"},{"postcode":"152200","name":"兴安盟","parentcode":"150000"},{"postcode":"152201","name":"乌兰浩特市","parentcode":"150000"},{"postcode":"152202","name":"阿尔山市","parentcode":"150000"},{"postcode":"152500","name":"锡林郭勒盟","parentcode":"150000"},{"postcode":"152501","name":"二连浩特市","parentcode":"150000"},{"postcode":"152502","name":"锡林浩特市","parentcode":"150000"},{"postcode":"152527","name":"太仆寺旗","parentcode":"150000"},{"postcode":"152900","name":"阿拉善盟","parentcode":"150000"},{"postcode":"17300","name":"乌审旗","parentcode":"150000"},{"postcode":"17399","name":"乌审旗嘎鲁图镇","parentcode":"150000"},{"postcode":"24300","name":"敖汉旗","parentcode":"150000"}]},{"postcode":"210000","name":"辽宁省","nameen":"EN","children":[{"postcode":"110200","name":"辽中市","parentcode":"210000"},{"postcode":"110400","name":"法库市","parentcode":"210000"},{"postcode":"112500","name":"昌图市","parentcode":"210000"},{"postcode":"113200","name":"新宾市","parentcode":"210000"},{"postcode":"113300","name":"清原市","parentcode":"210000"},{"postcode":"114100","name":"台安市","parentcode":"210000"},{"postcode":"114300","name":"岫岩市","parentcode":"210000"},{"postcode":"116500","name":"长海市","parentcode":"210000"},{"postcode":"117200","name":"桓仁市","parentcode":"210000"},{"postcode":"118200","name":"宽甸市","parentcode":"210000"},{"postcode":"121400","name":"黑山市","parentcode":"210000"},{"postcode":"122400","name":"建平市","parentcode":"210000"},{"postcode":"123200","name":"彰武市","parentcode":"210000"},{"postcode":"124000","name":"兴隆市","parentcode":"210000"},{"postcode":"125200","name":"绥中市","parentcode":"210000"},{"postcode":"125300","name":"建昌市","parentcode":"210000"},{"postcode":"131500","name":"长岭市","parentcode":"210000"},{"postcode":"210100","name":"沈阳市","parentcode":"210000"},{"postcode":"210181","name":"新民市","parentcode":"210000"},{"postcode":"210200","name":"大连市","parentcode":"210000"},{"postcode":"210281","name":"瓦房店市","parentcode":"210000"},{"postcode":"210282","name":"普兰店市","parentcode":"210000"},{"postcode":"210283","name":"庄河市","parentcode":"210000"},{"postcode":"210300","name":"鞍山市","parentcode":"210000"},{"postcode":"210381","name":"海城市","parentcode":"210000"},{"postcode":"210400","name":"抚顺市","parentcode":"210000"},{"postcode":"210500","name":"本溪市","parentcode":"210000"},{"postcode":"210600","name":"丹东市","parentcode":"210000"},{"postcode":"210681","name":"东港市","parentcode":"210000"},{"postcode":"210682","name":"凤城市","parentcode":"210000"},{"postcode":"210700","name":"锦州市","parentcode":"210000"},{"postcode":"210781","name":"凌海市","parentcode":"210000"},{"postcode":"210782","name":"北镇市","parentcode":"210000"},{"postcode":"210800","name":"营口市","parentcode":"210000"},{"postcode":"210881","name":"盖州市","parentcode":"210000"},{"postcode":"210882","name":"大石桥市","parentcode":"210000"},{"postcode":"210900","name":"阜新市","parentcode":"210000"},{"postcode":"211000","name":"辽阳市","parentcode":"210000"},{"postcode":"211081","name":"灯塔市","parentcode":"210000"},{"postcode":"211100","name":"盘锦市","parentcode":"210000"},{"postcode":"211200","name":"铁岭市","parentcode":"210000"},{"postcode":"211281","name":"调兵山市","parentcode":"210000"},{"postcode":"211282","name":"开原市","parentcode":"210000"},{"postcode":"211300","name":"朝阳市","parentcode":"210000"},{"postcode":"211381","name":"北票市","parentcode":"210000"},{"postcode":"211382","name":"凌源市","parentcode":"210000"},{"postcode":"211400","name":"葫芦岛市","parentcode":"210000"},{"postcode":"211481","name":"兴城市","parentcode":"210000"}]},{"postcode":"220000","name":"吉林省","nameen":"EN","children":[{"postcode":"130201","name":"农安市","parentcode":"220000"},{"postcode":"130701","name":"伊通市","parentcode":"220000"},{"postcode":"131199","name":"前郭尔罗斯市","parentcode":"220000"},{"postcode":"131200","name":"扶余市","parentcode":"220000"},{"postcode":"131400","name":"乾安市","parentcode":"220000"},{"postcode":"132021","name":"龙潭市","parentcode":"220000"},{"postcode":"132100","name":"永吉市","parentcode":"220000"},{"postcode":"133000","name":"延边朝鲜族自治州 延吉市","parentcode":"220000"},{"postcode":"133200","name":"汪清市","parentcode":"220000"},{"postcode":"133600","name":"安图市","parentcode":"220000"},{"postcode":"134400","name":"长白朝鲜族自治县","parentcode":"220000"},{"postcode":"134500","name":"抚松市","parentcode":"220000"},{"postcode":"134700","name":"松源市","parentcode":"220000"},{"postcode":"135100","name":"辉南市","parentcode":"220000"},{"postcode":"135200","name":"靖宇市","parentcode":"220000"},{"postcode":"135300","name":"柳河市","parentcode":"220000"},{"postcode":"136300","name":"东丰市","parentcode":"220000"},{"postcode":"136500","name":"梨树市","parentcode":"220000"},{"postcode":"137200","name":"通榆市","parentcode":"220000"},{"postcode":"220100","name":"长春市","parentcode":"220000"},{"postcode":"220181","name":"九台市","parentcode":"220000"},{"postcode":"220182","name":"榆树市","parentcode":"220000"},{"postcode":"220183","name":"德惠市","parentcode":"220000"},{"postcode":"220200","name":"吉林市","parentcode":"220000"},{"postcode":"220281","name":"蛟河市","parentcode":"220000"},{"postcode":"220282","name":"桦甸市","parentcode":"220000"},{"postcode":"220283","name":"舒兰市","parentcode":"220000"},{"postcode":"220284","name":"磐石市","parentcode":"220000"},{"postcode":"220300","name":"四平市","parentcode":"220000"},{"postcode":"220381","name":"公主岭市","parentcode":"220000"},{"postcode":"220382","name":"双辽市","parentcode":"220000"},{"postcode":"220400","name":"辽源市","parentcode":"220000"},{"postcode":"220500","name":"通化市","parentcode":"220000"},{"postcode":"220581","name":"梅河口市","parentcode":"220000"},{"postcode":"220582","name":"集安市","parentcode":"220000"},{"postcode":"220600","name":"白山市","parentcode":"220000"},{"postcode":"220681","name":"临江市","parentcode":"220000"},{"postcode":"220700","name":"松原市","parentcode":"220000"},{"postcode":"220800","name":"白城市","parentcode":"220000"},{"postcode":"220881","name":"洮南市","parentcode":"220000"},{"postcode":"220882","name":"大安市","parentcode":"220000"},{"postcode":"222400","name":"延边朝鲜族自治州","parentcode":"220000"},{"postcode":"222401","name":"延吉市","parentcode":"220000"},{"postcode":"222402","name":"图们市","parentcode":"220000"},{"postcode":"222403","name":"敦化市","parentcode":"220000"},{"postcode":"222404","name":"珲春市","parentcode":"220000"},{"postcode":"222405","name":"龙井市","parentcode":"220000"},{"postcode":"222406","name":"和龙市","parentcode":"220000"}]},{"postcode":"230000","name":"黑龙江省","nameen":"EN","children":[{"postcode":"150001","name":"南岗市","parentcode":"230000"},{"postcode":"150301","name":"阿城市","parentcode":"230000"},{"postcode":"150804","name":"方正市","parentcode":"230000"},{"postcode":"151552","name":"兰西市","parentcode":"230000"},{"postcode":"151604","name":"青冈市","parentcode":"230000"},{"postcode":"151700","name":"明水市","parentcode":"230000"},{"postcode":"151800","name":"巴彦市","parentcode":"230000"},{"postcode":"152400","name":"庆安市","parentcode":"230000"},{"postcode":"154211","name":"萝北市","parentcode":"230000"},{"postcode":"154400","name":"桦南市","parentcode":"230000"},{"postcode":"154700","name":"汤原市","parentcode":"230000"},{"postcode":"154800","name":"依兰市","parentcode":"230000"},{"postcode":"155601","name":"宝清市","parentcode":"230000"},{"postcode":"155700","name":"饶安市","parentcode":"230000"},{"postcode":"155900","name":"集贤市","parentcode":"230000"},{"postcode":"156202","name":"绥滨市","parentcode":"230000"},{"postcode":"156500","name":"抚远市","parentcode":"230000"},{"postcode":"157200","name":"东宁市","parentcode":"230000"},{"postcode":"157600","name":"林口市","parentcode":"230000"},{"postcode":"158200","name":"鸡东市","parentcode":"230000"},{"postcode":"161100","name":"龙江市","parentcode":"230000"},{"postcode":"162400","name":"泰来市","parentcode":"230000"},{"postcode":"164800","name":"克东市","parentcode":"230000"},{"postcode":"165000","name":"加格达奇","parentcode":"230000"},{"postcode":"165200","name":"塔河市","parentcode":"230000"},{"postcode":"166300","name":"林甸市","parentcode":"230000"},{"postcode":"230100","name":"哈尔滨市","parentcode":"230000"},{"postcode":"230182","name":"双城市","parentcode":"230000"},{"postcode":"230183","name":"尚志市","parentcode":"230000"},{"postcode":"230184","name":"五常市","parentcode":"230000"},{"postcode":"230200","name":"齐齐哈尔市","parentcode":"230000"},{"postcode":"230281","name":"讷河市","parentcode":"230000"},{"postcode":"230300","name":"鸡西市","parentcode":"230000"},{"postcode":"230381","name":"虎林市","parentcode":"230000"},{"postcode":"230382","name":"密山市","parentcode":"230000"},{"postcode":"230400","name":"鹤岗市","parentcode":"230000"},{"postcode":"230500","name":"双鸭山市","parentcode":"230000"},{"postcode":"230600","name":"大庆市","parentcode":"230000"},{"postcode":"230700","name":"伊春市","parentcode":"230000"},{"postcode":"230781","name":"铁力市","parentcode":"230000"},{"postcode":"230800","name":"佳木斯市","parentcode":"230000"},{"postcode":"230881","name":"同江市","parentcode":"230000"},{"postcode":"230882","name":"富锦市","parentcode":"230000"},{"postcode":"230900","name":"七台河市","parentcode":"230000"},{"postcode":"231000","name":"牡丹江市","parentcode":"230000"},{"postcode":"231081","name":"绥芬河市","parentcode":"230000"},{"postcode":"231083","name":"海林市","parentcode":"230000"},{"postcode":"231084","name":"宁安市","parentcode":"230000"},{"postcode":"231085","name":"穆棱市","parentcode":"230000"},{"postcode":"231100","name":"黑河市","parentcode":"230000"},{"postcode":"231181","name":"北安市","parentcode":"230000"},{"postcode":"231182","name":"五大连池市","parentcode":"230000"},{"postcode":"231200","name":"绥化市","parentcode":"230000"},{"postcode":"231281","name":"安达市","parentcode":"230000"},{"postcode":"231282","name":"肇东市","parentcode":"230000"},{"postcode":"231283","name":"海伦市","parentcode":"230000"},{"postcode":"232700","name":"大兴安岭地区","parentcode":"230000"},{"postcode":"453800","name":"获嘉市","parentcode":"230000"},{"postcode":"467500","name":"范县市","parentcode":"230000"}]},{"postcode":"310000","name":"上海市","nameen":"EN","children":[{"postcode":"310100","name":"上海市","parentcode":"310000"},{"postcode":"310101","name":"黄浦区","parentcode":"310000"},{"postcode":"310103","name":"卢湾区","parentcode":"310000"},{"postcode":"310104","name":"徐汇区","parentcode":"310000"},{"postcode":"310105","name":"长宁区","parentcode":"310000"},{"postcode":"310106","name":"静安区","parentcode":"310000"},{"postcode":"310107","name":"普陀区","parentcode":"310000"},{"postcode":"310108","name":"闸北区","parentcode":"310000"},{"postcode":"310109","name":"虹口区","parentcode":"310000"},{"postcode":"310110","name":"杨浦区","parentcode":"310000"},{"postcode":"310112","name":"闵行区","parentcode":"310000"},{"postcode":"310113","name":"宝山区","parentcode":"310000"},{"postcode":"310114","name":"嘉定区","parentcode":"310000"},{"postcode":"310115","name":"浦东新区","parentcode":"310000"},{"postcode":"310116","name":"金山区","parentcode":"310000"},{"postcode":"310117","name":"松江区","parentcode":"310000"},{"postcode":"310118","name":"青浦区","parentcode":"310000"},{"postcode":"310119","name":"南汇区","parentcode":"310000"},{"postcode":"310120","name":"奉贤区","parentcode":"310000"},{"postcode":"310230","name":"崇明区","parentcode":"310000"}]},{"postcode":"320000","name":"江苏省","nameen":"EN","children":[{"postcode":"210032","name":"高新技术开发区","parentcode":"320000"},{"postcode":"211600","name":"沛县市","parentcode":"320000"},{"postcode":"211700","name":"盱眙县","parentcode":"320000"},{"postcode":"213100","name":"武进市","parentcode":"320000"},{"postcode":"215100","name":"吴中市","parentcode":"320000"},{"postcode":"221112","name":"铜山市","parentcode":"320000"},{"postcode":"221200","name":"睢宁市","parentcode":"320000"},{"postcode":"221300","name":"高淳市","parentcode":"320000"},{"postcode":"221700","name":"丰县市","parentcode":"320000"},{"postcode":"222100","name":"赣榆县","parentcode":"320000"},{"postcode":"222200","name":"灌云市","parentcode":"320000"},{"postcode":"222300","name":"东海市","parentcode":"320000"},{"postcode":"223400","name":"涟水市","parentcode":"320000"},{"postcode":"223500","name":"灌南市","parentcode":"320000"},{"postcode":"223600","name":"沭阳市","parentcode":"320000"},{"postcode":"223700","name":"泗阳市","parentcode":"320000"},{"postcode":"223900","name":"泗洪市","parentcode":"320000"},{"postcode":"224300","name":"射阳市","parentcode":"320000"},{"postcode":"224400","name":"阜宁市","parentcode":"320000"},{"postcode":"224500","name":"滨海市","parentcode":"320000"},{"postcode":"224600","name":"响水市","parentcode":"320000"},{"postcode":"224700","name":"建湖市","parentcode":"320000"},{"postcode":"225800","name":"宝应市","parentcode":"320000"},{"postcode":"226400","name":"如东市","parentcode":"320000"},{"postcode":"226600","name":"海安市","parentcode":"320000"},{"postcode":"320100","name":"南京市","parentcode":"320000"},{"postcode":"320200","name":"无锡市","parentcode":"320000"},{"postcode":"320281","name":"江阴市","parentcode":"320000"},{"postcode":"320282","name":"宜兴市","parentcode":"320000"},{"postcode":"320300","name":"徐州市","parentcode":"320000"},{"postcode":"320381","name":"新沂市","parentcode":"320000"},{"postcode":"320382","name":"邳州市","parentcode":"320000"},{"postcode":"320400","name":"常州市","parentcode":"320000"},{"postcode":"320481","name":"溧阳市","parentcode":"320000"},{"postcode":"320482","name":"金坛市","parentcode":"320000"},{"postcode":"320500","name":"苏州市","parentcode":"320000"},{"postcode":"320581","name":"常熟市","parentcode":"320000"},{"postcode":"320582","name":"张家港市","parentcode":"320000"},{"postcode":"320583","name":"昆山市","parentcode":"320000"},{"postcode":"320584","name":"吴江市","parentcode":"320000"},{"postcode":"320585","name":"太仓市","parentcode":"320000"},{"postcode":"320600","name":"南通市","parentcode":"320000"},{"postcode":"320681","name":"启东市","parentcode":"320000"},{"postcode":"320682","name":"如皋市","parentcode":"320000"},{"postcode":"320684","name":"海门市","parentcode":"320000"},{"postcode":"320700","name":"连云港市","parentcode":"320000"},{"postcode":"320800","name":"淮安市","parentcode":"320000"},{"postcode":"320900","name":"盐城市","parentcode":"320000"},{"postcode":"320981","name":"东台市","parentcode":"320000"},{"postcode":"320982","name":"大丰市","parentcode":"320000"},{"postcode":"321000","name":"扬州市","parentcode":"320000"},{"postcode":"321081","name":"仪征市","parentcode":"320000"},{"postcode":"321084","name":"高邮市","parentcode":"320000"},{"postcode":"321100","name":"镇江市","parentcode":"320000"},{"postcode":"321181","name":"丹阳市","parentcode":"320000"},{"postcode":"321182","name":"扬中市","parentcode":"320000"},{"postcode":"321183","name":"句容市","parentcode":"320000"},{"postcode":"321200","name":"泰州市","parentcode":"320000"},{"postcode":"321281","name":"兴化市","parentcode":"320000"},{"postcode":"321282","name":"靖江市","parentcode":"320000"},{"postcode":"321283","name":"泰兴市","parentcode":"320000"},{"postcode":"321284","name":"姜堰市","parentcode":"320000"},{"postcode":"321300","name":"宿迁市","parentcode":"320000"}]},{"postcode":"330000","name":"浙江省","nameen":"EN","children":[{"postcode":"330100","name":"杭州市","parentcode":"330000"},{"postcode":"330104","name":"江干市","parentcode":"330000"},{"postcode":"330109","name":"萧山市","parentcode":"330000"},{"postcode":"330110","name":"余杭市","parentcode":"330000"},{"postcode":"330121","name":"玉环市","parentcode":"330000"},{"postcode":"330122","name":"桐庐市","parentcode":"330000"},{"postcode":"330127","name":"淳安市","parentcode":"330000"},{"postcode":"330182","name":"建德市","parentcode":"330000"},{"postcode":"330183","name":"富阳市","parentcode":"330000"},{"postcode":"330185","name":"临安市","parentcode":"330000"},{"postcode":"330200","name":"宁波市","parentcode":"330000"},{"postcode":"330225","name":"象山市","parentcode":"330000"},{"postcode":"330226","name":"宁海市","parentcode":"330000"},{"postcode":"330281","name":"余姚市","parentcode":"330000"},{"postcode":"330282","name":"慈溪市","parentcode":"330000"},{"postcode":"330283","name":"奉化市","parentcode":"330000"},{"postcode":"330300","name":"温州市","parentcode":"330000"},{"postcode":"330304","name":"瓯海市","parentcode":"330000"},{"postcode":"330322","name":"洞头市","parentcode":"330000"},{"postcode":"330324","name":"永嘉县","parentcode":"330000"},{"postcode":"330326","name":"平阳市","parentcode":"330000"},{"postcode":"330327","name":"苍南市","parentcode":"330000"},{"postcode":"330328","name":"文成市","parentcode":"330000"},{"postcode":"330329","name":"泰顺市","parentcode":"330000"},{"postcode":"330381","name":"瑞安市","parentcode":"330000"},{"postcode":"330382","name":"乐清市","parentcode":"330000"},{"postcode":"330400","name":"嘉兴市","parentcode":"330000"},{"postcode":"330421","name":"嘉善市","parentcode":"330000"},{"postcode":"330424","name":"海盐市","parentcode":"330000"},{"postcode":"330481","name":"海宁市","parentcode":"330000"},{"postcode":"330482","name":"平湖市","parentcode":"330000"},{"postcode":"330483","name":"桐乡市","parentcode":"330000"},{"postcode":"330500","name":"湖州市","parentcode":"330000"},{"postcode":"330521","name":"德清市","parentcode":"330000"},{"postcode":"330522","name":"长兴市","parentcode":"330000"},{"postcode":"330523","name":"安吉市","parentcode":"330000"},{"postcode":"330600","name":"绍兴市","parentcode":"330000"},{"postcode":"330624","name":"新昌市","parentcode":"330000"},{"postcode":"330681","name":"诸暨市","parentcode":"330000"},{"postcode":"330682","name":"上虞市","parentcode":"330000"},{"postcode":"330683","name":"嵊州市","parentcode":"330000"},{"postcode":"330700","name":"金华市","parentcode":"330000"},{"postcode":"330723","name":"武义市","parentcode":"330000"},{"postcode":"330726","name":"浦江市","parentcode":"330000"},{"postcode":"330781","name":"兰溪市","parentcode":"330000"},{"postcode":"330782","name":"义乌市","parentcode":"330000"},{"postcode":"330783","name":"东阳市","parentcode":"330000"},{"postcode":"330784","name":"永康市","parentcode":"330000"},{"postcode":"330800","name":"衢州市","parentcode":"330000"},{"postcode":"330822","name":"常山市","parentcode":"330000"},{"postcode":"330824","name":"开化市","parentcode":"330000"},{"postcode":"330825","name":"龙游市","parentcode":"330000"},{"postcode":"330881","name":"江山市","parentcode":"330000"},{"postcode":"330900","name":"舟山市","parentcode":"330000"},{"postcode":"331000","name":"台州市","parentcode":"330000"},{"postcode":"331003","name":"黄岩市","parentcode":"330000"},{"postcode":"331022","name":"三门市","parentcode":"330000"},{"postcode":"331023","name":"天台市","parentcode":"330000"},{"postcode":"331024","name":"仙居市","parentcode":"330000"},{"postcode":"331081","name":"温岭市","parentcode":"330000"},{"postcode":"331082","name":"临海市","parentcode":"330000"},{"postcode":"331100","name":"丽水市","parentcode":"330000"},{"postcode":"331121","name":"青田市","parentcode":"330000"},{"postcode":"331122","name":"缙云市","parentcode":"330000"},{"postcode":"331123","name":"遂昌市","parentcode":"330000"},{"postcode":"331124","name":"松阳市","parentcode":"330000"},{"postcode":"331125","name":"云和市","parentcode":"330000"},{"postcode":"331181","name":"龙泉市","parentcode":"330000"}]},{"postcode":"340000","name":"安徽省","nameen":"EN","children":[{"postcode":"230000","name":"肥东市","parentcode":"340000"},{"postcode":"231300","name":"舒城市","parentcode":"340000"},{"postcode":"231500","name":"庐江市","parentcode":"340000"},{"postcode":"232100","name":"凤台市","parentcode":"340000"},{"postcode":"232200","name":"寿县市","parentcode":"340000"},{"postcode":"233100","name":"凤阳市","parentcode":"340000"},{"postcode":"233200","name":"定远市","parentcode":"340000"},{"postcode":"233300","name":"五河市","parentcode":"340000"},{"postcode":"233400","name":"怀远市","parentcode":"340000"},{"postcode":"233500","name":"蒙城市","parentcode":"340000"},{"postcode":"233600","name":"涡阳市","parentcode":"340000"},{"postcode":"233700","name":"固镇市","parentcode":"340000"},{"postcode":"234300","name":"泗县市","parentcode":"340000"},{"postcode":"235100","name":"濉溪市","parentcode":"340000"},{"postcode":"235200","name":"萧县市","parentcode":"340000"},{"postcode":"235300","name":"砀山市","parentcode":"340000"},{"postcode":"236000","name":"毫州市","parentcode":"340000"},{"postcode":"236200","name":"颍上市","parentcode":"340000"},{"postcode":"236300","name":"阜南市","parentcode":"340000"},{"postcode":"236400","name":"临泉市","parentcode":"340000"},{"postcode":"236500","name":"界守市","parentcode":"340000"},{"postcode":"236600","name":"太和市","parentcode":"340000"},{"postcode":"236700","name":"利辛市","parentcode":"340000"},{"postcode":"237200","name":"霍山市","parentcode":"340000"},{"postcode":"237300","name":"金寨市","parentcode":"340000"},{"postcode":"237400","name":"霍邱市","parentcode":"340000"},{"postcode":"238200","name":"和县市","parentcode":"340000"},{"postcode":"238300","name":"无为市","parentcode":"340000"},{"postcode":"239200","name":"来安市","parentcode":"340000"},{"postcode":"239500","name":"全椒市","parentcode":"340000"},{"postcode":"241200","name":"繁昌市","parentcode":"340000"},{"postcode":"242000","name":"宣州市","parentcode":"340000"},{"postcode":"242100","name":"郎溪市","parentcode":"340000"},{"postcode":"242200","name":"广德市","parentcode":"340000"},{"postcode":"242400","name":"南陵市","parentcode":"340000"},{"postcode":"242500","name":"泾县市","parentcode":"340000"},{"postcode":"242600","name":"旌德市","parentcode":"340000"},{"postcode":"242800","name":"青阳市","parentcode":"340000"},{"postcode":"243100","name":"当涂市","parentcode":"340000"},{"postcode":"245100","name":"石台市","parentcode":"340000"},{"postcode":"245200","name":"歙县市","parentcode":"340000"},{"postcode":"245300","name":"绩溪市","parentcode":"340000"},{"postcode":"245400","name":"休宁市","parentcode":"340000"},{"postcode":"245500","name":"黟县市","parentcode":"340000"},{"postcode":"245600","name":"祁门市","parentcode":"340000"},{"postcode":"246100","name":"怀宁市","parentcode":"340000"},{"postcode":"246200","name":"望江市","parentcode":"340000"},{"postcode":"246300","name":"潜山市","parentcode":"340000"},{"postcode":"246400","name":"太湖市","parentcode":"340000"},{"postcode":"246500","name":"宿松市","parentcode":"340000"},{"postcode":"246700","name":"枞阳市","parentcode":"340000"},{"postcode":"247100","name":"贵池市","parentcode":"340000"},{"postcode":"247200","name":"东至市","parentcode":"340000"},{"postcode":"340100","name":"合肥市","parentcode":"340000"},{"postcode":"340181","name":"巢湖市","parentcode":"340000"},{"postcode":"340200","name":"芜湖市","parentcode":"340000"},{"postcode":"340221","name":"芜湖县","parentcode":"340000"},{"postcode":"340300","name":"蚌埠市","parentcode":"340000"},{"postcode":"340400","name":"淮南市","parentcode":"340000"},{"postcode":"340500","name":"马鞍山市","parentcode":"340000"},{"postcode":"340600","name":"淮北市","parentcode":"340000"},{"postcode":"340700","name":"铜陵市","parentcode":"340000"},{"postcode":"340800","name":"安庆市","parentcode":"340000"},{"postcode":"340881","name":"桐城市","parentcode":"340000"},{"postcode":"341000","name":"黄山市","parentcode":"340000"},{"postcode":"341100","name":"滁州市","parentcode":"340000"},{"postcode":"341181","name":"天长市","parentcode":"340000"},{"postcode":"341182","name":"明光市","parentcode":"340000"},{"postcode":"341200","name":"阜阳市","parentcode":"340000"},{"postcode":"341282","name":"界首市","parentcode":"340000"},{"postcode":"341300","name":"宿州市","parentcode":"340000"},{"postcode":"341500","name":"六安市","parentcode":"340000"},{"postcode":"341600","name":"亳州市","parentcode":"340000"},{"postcode":"341700","name":"池州市","parentcode":"340000"},{"postcode":"341800","name":"宣城市","parentcode":"340000"},{"postcode":"341881","name":"宁国市","parentcode":"340000"}]},{"postcode":"350000","name":"福建省","nameen":"EN","children":[{"postcode":"322300","name":"磐安市","parentcode":"350000"},{"postcode":"350100","name":"福州市","parentcode":"350000"},{"postcode":"350101","name":"闽侯县","parentcode":"350000"},{"postcode":"350181","name":"福清市","parentcode":"350000"},{"postcode":"350182","name":"长乐市","parentcode":"350000"},{"postcode":"350200","name":"厦门市","parentcode":"350000"},{"postcode":"350300","name":"莆田市","parentcode":"350000"},{"postcode":"350400","name":"三明市","parentcode":"350000"},{"postcode":"350481","name":"永安市","parentcode":"350000"},{"postcode":"350500","name":"泉州市","parentcode":"350000"},{"postcode":"350581","name":"石狮市","parentcode":"350000"},{"postcode":"350582","name":"晋江市","parentcode":"350000"},{"postcode":"350583","name":"南安市","parentcode":"350000"},{"postcode":"350600","name":"漳州市","parentcode":"350000"},{"postcode":"350681","name":"龙海市","parentcode":"350000"},{"postcode":"350700","name":"南平市","parentcode":"350000"},{"postcode":"350781","name":"邵武市","parentcode":"350000"},{"postcode":"350782","name":"武夷山市","parentcode":"350000"},{"postcode":"350783","name":"建瓯市","parentcode":"350000"},{"postcode":"350784","name":"建阳市","parentcode":"350000"},{"postcode":"350800","name":"龙岩市","parentcode":"350000"},{"postcode":"350881","name":"漳平市","parentcode":"350000"},{"postcode":"350900","name":"宁德市","parentcode":"350000"},{"postcode":"350981","name":"福安市","parentcode":"350000"},{"postcode":"350982","name":"福鼎市","parentcode":"350000"},{"postcode":"351200","name":"仙游市","parentcode":"350000"},{"postcode":"352200","name":"古田市","parentcode":"350000"},{"postcode":"352300","name":"屏南市","parentcode":"350000"},{"postcode":"353200","name":"顺昌市","parentcode":"350000"},{"postcode":"353400","name":"浦城市","parentcode":"350000"},{"postcode":"353500","name":"松溪市","parentcode":"350000"},{"postcode":"353600","name":"政和市","parentcode":"350000"},{"postcode":"354100","name":"光泽市","parentcode":"350000"},{"postcode":"354400","name":"泰宁市","parentcode":"350000"},{"postcode":"354500","name":"建宁市","parentcode":"350000"},{"postcode":"355100","name":"霞浦市","parentcode":"350000"},{"postcode":"355300","name":"柘荣市","parentcode":"350000"},{"postcode":"355330","name":"将乐市","parentcode":"350000"},{"postcode":"355400","name":"周宁市","parentcode":"350000"},{"postcode":"355500","name":"寿宁市","parentcode":"350000"},{"postcode":"362100","name":"惠安市","parentcode":"350000"},{"postcode":"362400","name":"安溪市","parentcode":"350000"},{"postcode":"362500","name":"德化市","parentcode":"350000"},{"postcode":"362600","name":"永春市","parentcode":"350000"},{"postcode":"363200","name":"漳浦市","parentcode":"350000"},{"postcode":"363300","name":"云霄市","parentcode":"350000"},{"postcode":"363400","name":"东山市","parentcode":"350000"},{"postcode":"363500","name":"诏安市","parentcode":"350000"},{"postcode":"363600","name":"南靖市","parentcode":"350000"},{"postcode":"363700","name":"平和市","parentcode":"350000"},{"postcode":"363800","name":"华安市","parentcode":"350000"},{"postcode":"363900","name":"长泰市","parentcode":"350000"},{"postcode":"364100","name":"永定市","parentcode":"350000"},{"postcode":"364200","name":"上杭市","parentcode":"350000"},{"postcode":"364300","name":"武平市","parentcode":"350000"},{"postcode":"365100","name":"尤溪市","parentcode":"350000"},{"postcode":"365300","name":"清流市","parentcode":"350000"},{"postcode":"365400","name":"宁化市","parentcode":"350000"},{"postcode":"365500","name":"沙县市","parentcode":"350000"},{"postcode":"366100","name":"大田市","parentcode":"350000"},{"postcode":"366200","name":"连城市","parentcode":"350000"},{"postcode":"366300","name":"长汀市","parentcode":"350000"}]},{"postcode":"360000","name":"江西省","nameen":"EN","children":[{"postcode":"331600","name":"吉水市","parentcode":"360000"},{"postcode":"333039","name":"浮梁县","parentcode":"360000"},{"postcode":"334700","name":"玉山市","parentcode":"360000"},{"postcode":"335201","name":"余江县","parentcode":"360000"},{"postcode":"336100","name":"万载市","parentcode":"360000"},{"postcode":"341900","name":"定南市","parentcode":"360000"},{"postcode":"342400","name":"兴国市","parentcode":"360000"},{"postcode":"342600","name":"会昌市","parentcode":"360000"},{"postcode":"343700","name":"泰和市","parentcode":"360000"},{"postcode":"344300","name":"乐安市","parentcode":"360000"},{"postcode":"360100","name":"南昌市","parentcode":"360000"},{"postcode":"360200","name":"景德镇市","parentcode":"360000"},{"postcode":"360281","name":"乐平市","parentcode":"360000"},{"postcode":"360300","name":"萍乡市","parentcode":"360000"},{"postcode":"360400","name":"九江市","parentcode":"360000"},{"postcode":"360481","name":"瑞昌市","parentcode":"360000"},{"postcode":"360482","name":"共青城市","parentcode":"360000"},{"postcode":"360500","name":"新余市","parentcode":"360000"},{"postcode":"360600","name":"鹰潭市","parentcode":"360000"},{"postcode":"360681","name":"贵溪市","parentcode":"360000"},{"postcode":"360700","name":"赣州市","parentcode":"360000"},{"postcode":"360781","name":"瑞金市","parentcode":"360000"},{"postcode":"360782","name":"南康市","parentcode":"360000"},{"postcode":"360800","name":"吉安市","parentcode":"360000"},{"postcode":"360881","name":"井冈山市","parentcode":"360000"},{"postcode":"360900","name":"宜春市","parentcode":"360000"},{"postcode":"360981","name":"丰城市","parentcode":"360000"},{"postcode":"360982","name":"樟树市","parentcode":"360000"},{"postcode":"360983","name":"高安市","parentcode":"360000"},{"postcode":"361000","name":"抚州市","parentcode":"360000"},{"postcode":"361100","name":"上饶市","parentcode":"360000"},{"postcode":"361181","name":"德兴市","parentcode":"360000"}]},{"postcode":"370000","name":"山东省","nameen":"EN","children":[{"postcode":"266000","name":"黄岛区","parentcode":"370000"},{"postcode":"370100","name":"济南市","parentcode":"370000"},{"postcode":"370124","name":"平阴市","parentcode":"370000"},{"postcode":"370125","name":"济阳市","parentcode":"370000"},{"postcode":"370126","name":"商河市","parentcode":"370000"},{"postcode":"370181","name":"章丘市","parentcode":"370000"},{"postcode":"370200","name":"青岛市","parentcode":"370000"},{"postcode":"370281","name":"胶州市","parentcode":"370000"},{"postcode":"370282","name":"即墨市","parentcode":"370000"},{"postcode":"370283","name":"平度市","parentcode":"370000"},{"postcode":"370284","name":"胶南市","parentcode":"370000"},{"postcode":"370285","name":"莱西市","parentcode":"370000"},{"postcode":"370300","name":"淄博市","parentcode":"370000"},{"postcode":"370321","name":"桓台市","parentcode":"370000"},{"postcode":"370322","name":"高青市","parentcode":"370000"},{"postcode":"370323","name":"沂源市","parentcode":"370000"},{"postcode":"370400","name":"枣庄市","parentcode":"370000"},{"postcode":"370481","name":"滕州市","parentcode":"370000"},{"postcode":"370500","name":"东营市","parentcode":"370000"},{"postcode":"370521","name":"垦利市","parentcode":"370000"},{"postcode":"370522","name":"利津市","parentcode":"370000"},{"postcode":"370523","name":"广饶市","parentcode":"370000"},{"postcode":"370600","name":"烟台市","parentcode":"370000"},{"postcode":"370681","name":"龙口市","parentcode":"370000"},{"postcode":"370682","name":"莱阳市","parentcode":"370000"},{"postcode":"370683","name":"莱州市","parentcode":"370000"},{"postcode":"370684","name":"蓬莱市","parentcode":"370000"},{"postcode":"370685","name":"招远市","parentcode":"370000"},{"postcode":"370686","name":"栖霞市","parentcode":"370000"},{"postcode":"370687","name":"海阳市","parentcode":"370000"},{"postcode":"370700","name":"潍坊市","parentcode":"370000"},{"postcode":"370724","name":"临朐市","parentcode":"370000"},{"postcode":"370725","name":"昌乐市","parentcode":"370000"},{"postcode":"370781","name":"青州市","parentcode":"370000"},{"postcode":"370782","name":"诸城市","parentcode":"370000"},{"postcode":"370783","name":"寿光市","parentcode":"370000"},{"postcode":"370784","name":"安丘市","parentcode":"370000"},{"postcode":"370785","name":"高密市","parentcode":"370000"},{"postcode":"370786","name":"昌邑市","parentcode":"370000"},{"postcode":"370800","name":"济宁市","parentcode":"370000"},{"postcode":"370811","name":"任城市","parentcode":"370000"},{"postcode":"370826","name":"微山市","parentcode":"370000"},{"postcode":"370827","name":"鱼台市","parentcode":"370000"},{"postcode":"370828","name":"金乡市","parentcode":"370000"},{"postcode":"370829","name":"嘉祥市","parentcode":"370000"},{"postcode":"370830","name":"汶上市","parentcode":"370000"},{"postcode":"370832","name":"梁山市","parentcode":"370000"},{"postcode":"370881","name":"曲阜市","parentcode":"370000"},{"postcode":"370882","name":"兖州市","parentcode":"370000"},{"postcode":"370883","name":"邹城市","parentcode":"370000"},{"postcode":"370900","name":"泰安市","parentcode":"370000"},{"postcode":"370923","name":"东平市","parentcode":"370000"},{"postcode":"370982","name":"新泰市","parentcode":"370000"},{"postcode":"370983","name":"肥城市","parentcode":"370000"},{"postcode":"371000","name":"威海市","parentcode":"370000"},{"postcode":"371081","name":"文登市","parentcode":"370000"},{"postcode":"371082","name":"荣成市","parentcode":"370000"},{"postcode":"371083","name":"乳山市","parentcode":"370000"},{"postcode":"371100","name":"日照市","parentcode":"370000"},{"postcode":"371121","name":"五莲市","parentcode":"370000"},{"postcode":"371122","name":"莒县市","parentcode":"370000"},{"postcode":"371200","name":"莱芜市","parentcode":"370000"},{"postcode":"371261","name":"惠民市","parentcode":"370000"},{"postcode":"371300","name":"临沂市","parentcode":"370000"},{"postcode":"371321","name":"沂南市","parentcode":"370000"},{"postcode":"371322","name":"郯城市","parentcode":"370000"},{"postcode":"371323","name":"沂水市","parentcode":"370000"},{"postcode":"371324","name":"苍山市","parentcode":"370000"},{"postcode":"371325","name":"费县市","parentcode":"370000"},{"postcode":"371326","name":"平邑市","parentcode":"370000"},{"postcode":"371327","name":"莒南市","parentcode":"370000"},{"postcode":"371328","name":"蒙阴市","parentcode":"370000"},{"postcode":"371329","name":"临沭市","parentcode":"370000"},{"postcode":"371400","name":"德州市","parentcode":"370000"},{"postcode":"371402","name":"德城市","parentcode":"370000"},{"postcode":"371421","name":"陵县市","parentcode":"370000"},{"postcode":"371422","name":"宁津市","parentcode":"370000"},{"postcode":"371423","name":"庆云市","parentcode":"370000"},{"postcode":"371424","name":"临邑市","parentcode":"370000"},{"postcode":"371425","name":"齐河市","parentcode":"370000"},{"postcode":"371427","name":"夏津市","parentcode":"370000"},{"postcode":"371428","name":"武城市","parentcode":"370000"},{"postcode":"371481","name":"乐陵市","parentcode":"370000"},{"postcode":"371482","name":"禹城市","parentcode":"370000"},{"postcode":"371500","name":"聊城市","parentcode":"370000"},{"postcode":"371521","name":"阳谷市","parentcode":"370000"},{"postcode":"371522","name":"莘县市","parentcode":"370000"},{"postcode":"371523","name":"茌平市","parentcode":"370000"},{"postcode":"371524","name":"东阿市","parentcode":"370000"},{"postcode":"371525","name":"冠县市","parentcode":"370000"},{"postcode":"371526","name":"高唐市","parentcode":"370000"},{"postcode":"371581","name":"临清市","parentcode":"370000"},{"postcode":"371600","name":"滨州市","parentcode":"370000"},{"postcode":"371622","name":"阳信市","parentcode":"370000"},{"postcode":"371623","name":"无棣市","parentcode":"370000"},{"postcode":"371624","name":"沾化市","parentcode":"370000"},{"postcode":"371625","name":"博兴市","parentcode":"370000"},{"postcode":"371626","name":"邹平市","parentcode":"370000"},{"postcode":"371700","name":"菏泽市","parentcode":"370000"},{"postcode":"371721","name":"曹县市","parentcode":"370000"},{"postcode":"371722","name":"单县市","parentcode":"370000"},{"postcode":"371724","name":"巨野市","parentcode":"370000"},{"postcode":"371725","name":"郓城市","parentcode":"370000"},{"postcode":"371727","name":"定陶市","parentcode":"370000"},{"postcode":"371728","name":"东明市","parentcode":"370000"}]},{"postcode":"410000","name":"河南省","nameen":"EN","children":[{"postcode":"410100","name":"郑州市","parentcode":"410000"},{"postcode":"410181","name":"巩义市","parentcode":"410000"},{"postcode":"410182","name":"荥阳市","parentcode":"410000"},{"postcode":"410183","name":"新密市","parentcode":"410000"},{"postcode":"410184","name":"新郑市","parentcode":"410000"},{"postcode":"410185","name":"登封市","parentcode":"410000"},{"postcode":"410200","name":"开封市","parentcode":"410000"},{"postcode":"410300","name":"洛阳市","parentcode":"410000"},{"postcode":"410381","name":"偃师市","parentcode":"410000"},{"postcode":"410400","name":"平顶山市","parentcode":"410000"},{"postcode":"410481","name":"舞钢市","parentcode":"410000"},{"postcode":"410482","name":"汝州市","parentcode":"410000"},{"postcode":"410500","name":"安阳市","parentcode":"410000"},{"postcode":"410581","name":"林州市","parentcode":"410000"},{"postcode":"410600","name":"鹤壁市","parentcode":"410000"},{"postcode":"410700","name":"新乡市","parentcode":"410000"},{"postcode":"410781","name":"卫辉市","parentcode":"410000"},{"postcode":"410782","name":"辉县市","parentcode":"410000"},{"postcode":"410800","name":"焦作市","parentcode":"410000"},{"postcode":"410882","name":"沁阳市","parentcode":"410000"},{"postcode":"410883","name":"孟州市","parentcode":"410000"},{"postcode":"410900","name":"濮阳市","parentcode":"410000"},{"postcode":"411000","name":"许昌市","parentcode":"410000"},{"postcode":"411081","name":"禹州市","parentcode":"410000"},{"postcode":"411082","name":"长葛市","parentcode":"410000"},{"postcode":"411100","name":"漯河市","parentcode":"410000"},{"postcode":"411200","name":"三门峡市","parentcode":"410000"},{"postcode":"411281","name":"义马市","parentcode":"410000"},{"postcode":"411282","name":"灵宝市","parentcode":"410000"},{"postcode":"411300","name":"南阳市","parentcode":"410000"},{"postcode":"411381","name":"邓州市","parentcode":"410000"},{"postcode":"411400","name":"商丘市","parentcode":"410000"},{"postcode":"411481","name":"永城市","parentcode":"410000"},{"postcode":"411500","name":"信阳市","parentcode":"410000"},{"postcode":"411600","name":"周口市","parentcode":"410000"},{"postcode":"411681","name":"项城市","parentcode":"410000"},{"postcode":"411700","name":"驻马店市","parentcode":"410000"},{"postcode":"419001","name":"济源市","parentcode":"410000"},{"postcode":"426100","name":"祁阳市","parentcode":"410000"},{"postcode":"450004","name":"管城市","parentcode":"410000"},{"postcode":"450041","name":"上街市","parentcode":"410000"},{"postcode":"451450","name":"中牟市","parentcode":"410000"},{"postcode":"452670","name":"襄城市","parentcode":"410000"},{"postcode":"453300","name":"封丘市","parentcode":"410000"},{"postcode":"453400","name":"长垣市","parentcode":"410000"},{"postcode":"453500","name":"原阳市","parentcode":"410000"},{"postcode":"454450","name":"博爱市","parentcode":"410000"},{"postcode":"454850","name":"温县市","parentcode":"410000"},{"postcode":"454950","name":"武陟市","parentcode":"410000"},{"postcode":"456250","name":"浚县市","parentcode":"410000"},{"postcode":"456300","name":"内黄市","parentcode":"410000"},{"postcode":"456400","name":"滑县市","parentcode":"410000"},{"postcode":"457401","name":"南乐市","parentcode":"410000"},{"postcode":"457600","name":"台前市","parentcode":"410000"},{"postcode":"461200","name":"鄢陵市","parentcode":"410000"},{"postcode":"461300","name":"扶沟市","parentcode":"410000"},{"postcode":"461411","name":"太康市","parentcode":"410000"},{"postcode":"462400","name":"舞阳市","parentcode":"410000"},{"postcode":"462600","name":"临颍市","parentcode":"410000"},{"postcode":"463100","name":"遂平市","parentcode":"410000"},{"postcode":"463206","name":"确山市","parentcode":"410000"},{"postcode":"463300","name":"汝南市","parentcode":"410000"},{"postcode":"463400","name":"平舆市","parentcode":"410000"},{"postcode":"463500","name":"新蔡市","parentcode":"410000"},{"postcode":"463602","name":"正阳市","parentcode":"410000"},{"postcode":"463700","name":"泌阳市","parentcode":"410000"},{"postcode":"463800","name":"上蔡市","parentcode":"410000"},{"postcode":"463900","name":"西平市","parentcode":"410000"},{"postcode":"464201","name":"罗山市","parentcode":"410000"},{"postcode":"465150","name":"潢川市","parentcode":"410000"},{"postcode":"465200","name":"固始市","parentcode":"410000"},{"postcode":"465450","name":"光山市","parentcode":"410000"},{"postcode":"465550","name":"新县市","parentcode":"410000"},{"postcode":"466100","name":"商水市","parentcode":"410000"},{"postcode":"466300","name":"沈丘市","parentcode":"410000"},{"postcode":"466600","name":"西华市","parentcode":"410000"},{"postcode":"467200","name":"叶县市","parentcode":"410000"},{"postcode":"467300","name":"鲁山市","parentcode":"410000"},{"postcode":"467400","name":"宝丰市","parentcode":"410000"},{"postcode":"471100","name":"孟津市","parentcode":"410000"},{"postcode":"471200","name":"汝阳市","parentcode":"410000"},{"postcode":"471300","name":"伊川市","parentcode":"410000"},{"postcode":"471500","name":"栾川市","parentcode":"410000"},{"postcode":"471700","name":"洛宁市","parentcode":"410000"},{"postcode":"471800","name":"新安市","parentcode":"410000"},{"postcode":"472400","name":"渑池市","parentcode":"410000"},{"postcode":"473200","name":"方城市","parentcode":"410000"},{"postcode":"473400","name":"唐河市","parentcode":"410000"},{"postcode":"473500","name":"新野市","parentcode":"410000"},{"postcode":"474250","name":"镇平市","parentcode":"410000"},{"postcode":"474550","name":"西峡市","parentcode":"410000"},{"postcode":"474750","name":"桐柏市","parentcode":"410000"},{"postcode":"475201","name":"杞县市","parentcode":"410000"},{"postcode":"475300","name":"兰考市","parentcode":"410000"},{"postcode":"475470","name":"通许市","parentcode":"410000"},{"postcode":"475500","name":"尉氏市","parentcode":"410000"},{"postcode":"476300","name":"虞城市","parentcode":"410000"},{"postcode":"476411","name":"夏邑市","parentcode":"410000"},{"postcode":"476800","name":"民权市","parentcode":"410000"},{"postcode":"476911","name":"睢县市","parentcode":"410000"},{"postcode":"477150","name":"郸城市","parentcode":"410000"},{"postcode":"477200","name":"鹿邑市","parentcode":"410000"}]},{"postcode":"420000","name":"湖北省","nameen":"EN","children":[{"postcode":"420100","name":"武汉市","parentcode":"420000"},{"postcode":"420200","name":"黄石市","parentcode":"420000"},{"postcode":"420281","name":"大冶市","parentcode":"420000"},{"postcode":"420300","name":"十堰市","parentcode":"420000"},{"postcode":"420381","name":"丹江口市","parentcode":"420000"},{"postcode":"420500","name":"宜昌市","parentcode":"420000"},{"postcode":"420581","name":"宜都市","parentcode":"420000"},{"postcode":"420582","name":"当阳市","parentcode":"420000"},{"postcode":"420583","name":"枝江市","parentcode":"420000"},{"postcode":"420600","name":"襄阳市","parentcode":"420000"},{"postcode":"420682","name":"老河口市","parentcode":"420000"},{"postcode":"420683","name":"枣阳市","parentcode":"420000"},{"postcode":"420684","name":"宜城市","parentcode":"420000"},{"postcode":"420700","name":"鄂州市","parentcode":"420000"},{"postcode":"420800","name":"荆门市","parentcode":"420000"},{"postcode":"420881","name":"钟祥市","parentcode":"420000"},{"postcode":"420900","name":"孝感市","parentcode":"420000"},{"postcode":"420981","name":"应城市","parentcode":"420000"},{"postcode":"420982","name":"安陆市","parentcode":"420000"},{"postcode":"420984","name":"汉川市","parentcode":"420000"},{"postcode":"421000","name":"荆州市","parentcode":"420000"},{"postcode":"421081","name":"石首市","parentcode":"420000"},{"postcode":"421083","name":"洪湖市","parentcode":"420000"},{"postcode":"421087","name":"松滋市","parentcode":"420000"},{"postcode":"421100","name":"黄冈市","parentcode":"420000"},{"postcode":"421181","name":"麻城市","parentcode":"420000"},{"postcode":"421182","name":"武穴市","parentcode":"420000"},{"postcode":"421200","name":"咸宁市","parentcode":"420000"},{"postcode":"421281","name":"赤壁市","parentcode":"420000"},{"postcode":"421300","name":"随州市","parentcode":"420000"},{"postcode":"421381","name":"广水市","parentcode":"420000"},{"postcode":"422800","name":"恩施土家族苗族自治州","parentcode":"420000"},{"postcode":"422801","name":"恩施市","parentcode":"420000"},{"postcode":"422802","name":"利川市","parentcode":"420000"},{"postcode":"429004","name":"仙桃市","parentcode":"420000"},{"postcode":"429005","name":"潜江市","parentcode":"420000"},{"postcode":"429006","name":"天门市","parentcode":"420000"},{"postcode":"430060","name":"武昌市","parentcode":"420000"},{"postcode":"431803","name":"京山市","parentcode":"420000"},{"postcode":"432503","name":"云梦市","parentcode":"420000"},{"postcode":"433301","name":"监利市","parentcode":"420000"},{"postcode":"434102","name":"江陵市","parentcode":"420000"},{"postcode":"434300","name":"公安市","parentcode":"420000"},{"postcode":"435500","name":"黄梅市","parentcode":"420000"},{"postcode":"437200","name":"嘉鱼市","parentcode":"420000"},{"postcode":"437401","name":"通城市","parentcode":"420000"},{"postcode":"437500","name":"崇阳市","parentcode":"420000"},{"postcode":"437610","name":"通山市","parentcode":"420000"},{"postcode":"438200","name":"浠水市","parentcode":"420000"},{"postcode":"438401","name":"红安市","parentcode":"420000"},{"postcode":"438701","name":"英山市","parentcode":"420000"},{"postcode":"441000","name":"襄樊市","parentcode":"420000"},{"postcode":"441602","name":"保康市","parentcode":"420000"},{"postcode":"442211","name":"竹山市","parentcode":"420000"},{"postcode":"442300","name":"竹溪市","parentcode":"420000"},{"postcode":"442400","name":"神农架市","parentcode":"420000"},{"postcode":"442613","name":"郧西市","parentcode":"420000"},{"postcode":"443501","name":"长阳市","parentcode":"420000"},{"postcode":"444200","name":"远安市","parentcode":"420000"},{"postcode":"448261","name":"沙洋市","parentcode":"420000"}]},{"postcode":"430000","name":"湖南省","nameen":"EN","children":[{"postcode":"410006","name":"岳麓市","parentcode":"430000"},{"postcode":"412001","name":"石峰市","parentcode":"430000"},{"postcode":"412002","name":"芦淞市","parentcode":"430000"},{"postcode":"412300","name":"攸县市","parentcode":"430000"},{"postcode":"412400","name":"茶陵市","parentcode":"430000"},{"postcode":"412500","name":"炎陵市","parentcode":"430000"},{"postcode":"413200","name":"南县市","parentcode":"430000"},{"postcode":"413400","name":"桃江市","parentcode":"430000"},{"postcode":"413500","name":"安化市","parentcode":"430000"},{"postcode":"414201","name":"华容市","parentcode":"430000"},{"postcode":"414400","name":"汩罗市","parentcode":"430000"},{"postcode":"414501","name":"平江县","parentcode":"430000"},{"postcode":"414602","name":"湘阴市","parentcode":"430000"},{"postcode":"415200","name":"临澧市","parentcode":"430000"},{"postcode":"415300","name":"石门市","parentcode":"430000"},{"postcode":"415501","name":"澧县市","parentcode":"430000"},{"postcode":"415701","name":"桃源市","parentcode":"430000"},{"postcode":"415900","name":"汉寿市","parentcode":"430000"},{"postcode":"416101","name":"泸溪市","parentcode":"430000"},{"postcode":"416200","name":"凤凰市","parentcode":"430000"},{"postcode":"416401","name":"花垣市","parentcode":"430000"},{"postcode":"416702","name":"永顺市","parentcode":"430000"},{"postcode":"416801","name":"龙山市","parentcode":"430000"},{"postcode":"417001","name":"娄星市","parentcode":"430000"},{"postcode":"417603","name":"新化市","parentcode":"430000"},{"postcode":"418001","name":"中方市","parentcode":"430000"},{"postcode":"418301","name":"会同市","parentcode":"430000"},{"postcode":"418501","name":"通道市","parentcode":"430000"},{"postcode":"419100","name":"芷江市","parentcode":"430000"},{"postcode":"419301","name":"溆浦市","parentcode":"430000"},{"postcode":"419600","name":"沅陵市","parentcode":"430000"},{"postcode":"421400","name":"衡东市","parentcode":"430000"},{"postcode":"421603","name":"祁东市","parentcode":"430000"},{"postcode":"422200","name":"隆回市","parentcode":"430000"},{"postcode":"422300","name":"洞口市","parentcode":"430000"},{"postcode":"422500","name":"城步市","parentcode":"430000"},{"postcode":"422900","name":"新邵市","parentcode":"430000"},{"postcode":"423300","name":"永兴市","parentcode":"430000"},{"postcode":"423500","name":"桂东市","parentcode":"430000"},{"postcode":"423600","name":"安仁市","parentcode":"430000"},{"postcode":"424101","name":"汝城市","parentcode":"430000"},{"postcode":"424200","name":"宜章市","parentcode":"430000"},{"postcode":"424300","name":"临武市","parentcode":"430000"},{"postcode":"424400","name":"桂阳市","parentcode":"430000"},{"postcode":"424501","name":"嘉禾市","parentcode":"430000"},{"postcode":"425200","name":"双牌市","parentcode":"430000"},{"postcode":"425600","name":"宁远市","parentcode":"430000"},{"postcode":"425800","name":"蓝山市","parentcode":"430000"},{"postcode":"425900","name":"东安市","parentcode":"430000"},{"postcode":"427200","name":"慈利市","parentcode":"430000"},{"postcode":"430100","name":"长沙市","parentcode":"430000"},{"postcode":"430181","name":"浏阳市","parentcode":"430000"},{"postcode":"430200","name":"株洲市","parentcode":"430000"},{"postcode":"430281","name":"醴陵市","parentcode":"430000"},{"postcode":"430300","name":"湘潭市","parentcode":"430000"},{"postcode":"430381","name":"湘乡市","parentcode":"430000"},{"postcode":"430382","name":"韶山市","parentcode":"430000"},{"postcode":"430400","name":"衡阳市","parentcode":"430000"},{"postcode":"430481","name":"耒阳市","parentcode":"430000"},{"postcode":"430482","name":"常宁市","parentcode":"430000"},{"postcode":"430500","name":"邵阳市","parentcode":"430000"},{"postcode":"430581","name":"武冈市","parentcode":"430000"},{"postcode":"430600","name":"岳阳市","parentcode":"430000"},{"postcode":"430681","name":"汨罗市","parentcode":"430000"},{"postcode":"430682","name":"临湘市","parentcode":"430000"},{"postcode":"430700","name":"常德市","parentcode":"430000"},{"postcode":"430781","name":"津市市","parentcode":"430000"},{"postcode":"430800","name":"张家界市","parentcode":"430000"},{"postcode":"430900","name":"益阳市","parentcode":"430000"},{"postcode":"430981","name":"沅江市","parentcode":"430000"},{"postcode":"431000","name":"郴州市","parentcode":"430000"},{"postcode":"431081","name":"资兴市","parentcode":"430000"},{"postcode":"431100","name":"永州市","parentcode":"430000"},{"postcode":"431200","name":"怀化市","parentcode":"430000"},{"postcode":"431281","name":"洪江市","parentcode":"430000"},{"postcode":"431300","name":"娄底市","parentcode":"430000"},{"postcode":"431381","name":"冷水江市","parentcode":"430000"},{"postcode":"431382","name":"涟源市","parentcode":"430000"},{"postcode":"433100","name":"湘西土家族苗族自治州","parentcode":"430000"},{"postcode":"433101","name":"吉首市","parentcode":"430000"}]},{"postcode":"440000","name":"广东省","nameen":"EN","children":[{"postcode":"440100","name":"广州市","parentcode":"440000"},{"postcode":"440183","name":"增城市","parentcode":"440000"},{"postcode":"440184","name":"从化市","parentcode":"440000"},{"postcode":"440200","name":"韶关市","parentcode":"440000"},{"postcode":"440281","name":"乐昌市","parentcode":"440000"},{"postcode":"440282","name":"南雄市","parentcode":"440000"},{"postcode":"440300","name":"深圳市","parentcode":"440000"},{"postcode":"440400","name":"珠海市","parentcode":"440000"},{"postcode":"440500","name":"汕头市","parentcode":"440000"},{"postcode":"440600","name":"佛山市","parentcode":"440000"},{"postcode":"440700","name":"江门市","parentcode":"440000"},{"postcode":"440781","name":"台山市","parentcode":"440000"},{"postcode":"440783","name":"开平市","parentcode":"440000"},{"postcode":"440784","name":"鹤山市","parentcode":"440000"},{"postcode":"440785","name":"恩平市","parentcode":"440000"},{"postcode":"440800","name":"湛江市","parentcode":"440000"},{"postcode":"440881","name":"廉江市","parentcode":"440000"},{"postcode":"440882","name":"雷州市","parentcode":"440000"},{"postcode":"440883","name":"吴川市","parentcode":"440000"},{"postcode":"440900","name":"茂名市","parentcode":"440000"},{"postcode":"440981","name":"高州市","parentcode":"440000"},{"postcode":"440982","name":"化州市","parentcode":"440000"},{"postcode":"440983","name":"信宜市","parentcode":"440000"},{"postcode":"441200","name":"肇庆市","parentcode":"440000"},{"postcode":"441283","name":"高要市","parentcode":"440000"},{"postcode":"441284","name":"四会市","parentcode":"440000"},{"postcode":"441300","name":"惠州市","parentcode":"440000"},{"postcode":"441400","name":"梅州市","parentcode":"440000"},{"postcode":"441481","name":"兴宁市","parentcode":"440000"},{"postcode":"441500","name":"汕尾市","parentcode":"440000"},{"postcode":"441581","name":"陆丰市","parentcode":"440000"},{"postcode":"441600","name":"河源市","parentcode":"440000"},{"postcode":"441700","name":"阳江市","parentcode":"440000"},{"postcode":"441781","name":"阳春市","parentcode":"440000"},{"postcode":"441800","name":"清远市","parentcode":"440000"},{"postcode":"441881","name":"英德市","parentcode":"440000"},{"postcode":"441882","name":"连州市","parentcode":"440000"},{"postcode":"441900","name":"东莞市","parentcode":"440000"},{"postcode":"442000","name":"中山市","parentcode":"440000"},{"postcode":"445100","name":"潮州市","parentcode":"440000"},{"postcode":"445200","name":"揭阳市","parentcode":"440000"},{"postcode":"445281","name":"普宁市","parentcode":"440000"},{"postcode":"445300","name":"云浮市","parentcode":"440000"},{"postcode":"445381","name":"罗定市","parentcode":"440000"},{"postcode":"512100","name":"曲江市","parentcode":"440000"},{"postcode":"512300","name":"仁化市","parentcode":"440000"},{"postcode":"512500","name":"始兴市","parentcode":"440000"},{"postcode":"513100","name":"阳山市","parentcode":"440000"},{"postcode":"514115","name":"蕉岭市","parentcode":"440000"},{"postcode":"514200","name":"大埔市","parentcode":"440000"},{"postcode":"514321","name":"丰顺市","parentcode":"440000"},{"postcode":"514411","name":"五华市","parentcode":"440000"},{"postcode":"514600","name":"平远市","parentcode":"440000"},{"postcode":"514700","name":"梅县市","parentcode":"440000"},{"postcode":"515100","name":"潮阳市","parentcode":"440000"},{"postcode":"515200","name":"惠来市","parentcode":"440000"},{"postcode":"515400","name":"揭西市","parentcode":"440000"},{"postcode":"515500","name":"揭东市","parentcode":"440000"},{"postcode":"515600","name":"潮安市","parentcode":"440000"},{"postcode":"515700","name":"饶平市","parentcode":"440000"},{"postcode":"515800","name":"澄海市","parentcode":"440000"},{"postcode":"516100","name":"博罗市","parentcode":"440000"},{"postcode":"516200","name":"惠阳市","parentcode":"440000"},{"postcode":"516300","name":"惠东市","parentcode":"440000"},{"postcode":"516400","name":"海丰市","parentcode":"440000"},{"postcode":"516600","name":"汕尾","parentcode":"440000"},{"postcode":"516700","name":"陆河市","parentcode":"440000"},{"postcode":"516800","name":"龙门市","parentcode":"440000"},{"postcode":"517100","name":"连平市","parentcode":"440000"},{"postcode":"517200","name":"和平市","parentcode":"440000"},{"postcode":"517300","name":"龙川市","parentcode":"440000"},{"postcode":"517400","name":"紫金市","parentcode":"440000"},{"postcode":"517500","name":"东源市","parentcode":"440000"},{"postcode":"518100","name":"龙岗市","parentcode":"440000"},{"postcode":"521600","name":"翁源市","parentcode":"440000"},{"postcode":"523841","name":"长安镇","parentcode":"440000"},{"postcode":"524100","name":"徐闻市","parentcode":"440000"},{"postcode":"524300","name":"遂溪市","parentcode":"440000"},{"postcode":"525400","name":"电白市","parentcode":"440000"},{"postcode":"526300","name":"广宁市","parentcode":"440000"},{"postcode":"526400","name":"怀集市","parentcode":"440000"},{"postcode":"526500","name":"封开市","parentcode":"440000"},{"postcode":"526600","name":"德庆市","parentcode":"440000"},{"postcode":"527100","name":"郁南","parentcode":"440000"},{"postcode":"527121","name":"郁南市","parentcode":"440000"},{"postcode":"527400","name":"新兴市","parentcode":"440000"},{"postcode":"527500","name":"云安市","parentcode":"440000"},{"postcode":"528000","name":"顺德市","parentcode":"440000"},{"postcode":"528100","name":"三水市","parentcode":"440000"},{"postcode":"528200","name":"南海市","parentcode":"440000"},{"postcode":"528500","name":"高明市","parentcode":"440000"},{"postcode":"529100","name":"新会市","parentcode":"440000"},{"postcode":"529800","name":"阳西市","parentcode":"440000"},{"postcode":"529900","name":"阳东市","parentcode":"440000"},{"postcode":"710075","name":"天河市","parentcode":"440000"}]},{"postcode":"450000","name":"广西壮族自治区","nameen":"EN","children":[{"postcode":"450100","name":"南宁市","parentcode":"450000"},{"postcode":"450200","name":"柳州市","parentcode":"450000"},{"postcode":"450300","name":"桂林市","parentcode":"450000"},{"postcode":"450400","name":"梧州市","parentcode":"450000"},{"postcode":"450481","name":"岑溪市","parentcode":"450000"},{"postcode":"450500","name":"北海市","parentcode":"450000"},{"postcode":"450600","name":"防城港市","parentcode":"450000"},{"postcode":"450681","name":"东兴市","parentcode":"450000"},{"postcode":"450700","name":"钦州市","parentcode":"450000"},{"postcode":"450800","name":"贵港市","parentcode":"450000"},{"postcode":"450881","name":"桂平市","parentcode":"450000"},{"postcode":"450900","name":"玉林市","parentcode":"450000"},{"postcode":"450981","name":"北流市","parentcode":"450000"},{"postcode":"451000","name":"百色市","parentcode":"450000"},{"postcode":"451100","name":"贺州市","parentcode":"450000"},{"postcode":"451200","name":"河池市","parentcode":"450000"},{"postcode":"451281","name":"宜州市","parentcode":"450000"},{"postcode":"451300","name":"来宾市","parentcode":"450000"},{"postcode":"451381","name":"合山市","parentcode":"450000"},{"postcode":"451400","name":"崇左市","parentcode":"450000"},{"postcode":"451481","name":"凭祥市","parentcode":"450000"},{"postcode":"530200","name":"邕宁市","parentcode":"450000"},{"postcode":"531400","name":"平果市","parentcode":"450000"},{"postcode":"531500","name":"田东市","parentcode":"450000"},{"postcode":"532100","name":"扶绥市","parentcode":"450000"},{"postcode":"532400","name":"龙州市","parentcode":"450000"},{"postcode":"532700","name":"隆安市","parentcode":"450000"},{"postcode":"533500","name":"西林市","parentcode":"450000"},{"postcode":"533600","name":"田阳市","parentcode":"450000"},{"postcode":"533700","name":"德保市","parentcode":"450000"},{"postcode":"533800","name":"靖西市","parentcode":"450000"},{"postcode":"533900","name":"那坡市","parentcode":"450000"},{"postcode":"535300","name":"浦北市","parentcode":"450000"},{"postcode":"535400","name":"灵山市","parentcode":"450000"},{"postcode":"535500","name":"上思市","parentcode":"450000"},{"postcode":"536100","name":"合浦市","parentcode":"450000"},{"postcode":"537300","name":"平南市","parentcode":"450000"},{"postcode":"537324","name":"思界市","parentcode":"450000"},{"postcode":"537500","name":"容县市","parentcode":"450000"},{"postcode":"537600","name":"博白市","parentcode":"450000"},{"postcode":"537700","name":"陆川市","parentcode":"450000"},{"postcode":"537811","name":"兴业市","parentcode":"450000"},{"postcode":"538021","name":"防城市","parentcode":"450000"},{"postcode":"541100","name":"临桂市","parentcode":"450000"},{"postcode":"541200","name":"灵川市","parentcode":"450000"},{"postcode":"541300","name":"兴安市","parentcode":"450000"},{"postcode":"541400","name":"资源市","parentcode":"450000"},{"postcode":"541500","name":"全州市","parentcode":"450000"},{"postcode":"541600","name":"灌阳市","parentcode":"450000"},{"postcode":"541700","name":"龙胜市","parentcode":"450000"},{"postcode":"541800","name":"永福市","parentcode":"450000"},{"postcode":"542700","name":"富川市","parentcode":"450000"},{"postcode":"543100","name":"苍梧市","parentcode":"450000"},{"postcode":"543300","name":"藤县市","parentcode":"450000"},{"postcode":"545000","name":"柳南市","parentcode":"450000"},{"postcode":"545100","name":"柳江市","parentcode":"450000"},{"postcode":"545400","name":"融安市","parentcode":"450000"},{"postcode":"545500","name":"三江市","parentcode":"450000"},{"postcode":"545600","name":"鹿寨市","parentcode":"450000"},{"postcode":"545700","name":"金秀市","parentcode":"450000"},{"postcode":"545800","name":"象州市","parentcode":"450000"},{"postcode":"545900","name":"武宣市","parentcode":"450000"},{"postcode":"546200","name":"忻城市","parentcode":"450000"},{"postcode":"546400","name":"罗城市","parentcode":"450000"},{"postcode":"546700","name":"蒙山市","parentcode":"450000"},{"postcode":"546800","name":"昭平市","parentcode":"450000"},{"postcode":"547100","name":"环江市","parentcode":"450000"},{"postcode":"547200","name":"南丹市","parentcode":"450000"},{"postcode":"547300","name":"天峨市","parentcode":"450000"},{"postcode":"547400","name":"东兰市","parentcode":"450000"},{"postcode":"547500","name":"巴马市","parentcode":"450000"},{"postcode":"547600","name":"凤山市","parentcode":"450000"}]},{"postcode":"460000","name":"海南省","nameen":"EN","children":[{"postcode":"460100","name":"海口市","parentcode":"460000"},{"postcode":"460200","name":"三亚市","parentcode":"460000"},{"postcode":"469001","name":"五指山市","parentcode":"460000"},{"postcode":"469002","name":"琼海市","parentcode":"460000"},{"postcode":"469003","name":"儋州市","parentcode":"460000"},{"postcode":"469005","name":"文昌市","parentcode":"460000"},{"postcode":"469006","name":"万宁市","parentcode":"460000"},{"postcode":"469007","name":"东方市","parentcode":"460000"},{"postcode":"571100","name":"琼山市","parentcode":"460000"},{"postcode":"571200","name":"定安市","parentcode":"460000"},{"postcode":"571600","name":"屯昌市","parentcode":"460000"},{"postcode":"571800","name":"临高市","parentcode":"460000"},{"postcode":"571900","name":"澄迈市","parentcode":"460000"},{"postcode":"572300","name":"保亭市","parentcode":"460000"},{"postcode":"572400","name":"陵水市","parentcode":"460000"},{"postcode":"572500","name":"乐东市","parentcode":"460000"},{"postcode":"572700","name":"昌江市","parentcode":"460000"},{"postcode":"572800","name":"白沙市","parentcode":"460000"},{"postcode":"572900","name":"琼中市","parentcode":"460000"},{"postcode":"578001","name":"洋浦市","parentcode":"460000"}]},{"postcode":"500000","name":"重庆市","nameen":"EN","children":[{"postcode":"400010","name":"渝中区","parentcode":"500000"},{"postcode":"400020","name":"江北区","parentcode":"500000"},{"postcode":"400030","name":"沙坪坝区","parentcode":"500000"},{"postcode":"400039","name":"九龙坡区","parentcode":"500000"},{"postcode":"400060","name":"南岸区","parentcode":"500000"},{"postcode":"400700","name":"北碚区","parentcode":"500000"},{"postcode":"401120","name":"渝北区","parentcode":"500000"},{"postcode":"401220","name":"长寿区","parentcode":"500000"},{"postcode":"401320","name":"巴南区","parentcode":"500000"},{"postcode":"402160","name":"永川区","parentcode":"500000"},{"postcode":"404100","name":"万州区","parentcode":"500000"},{"postcode":"405200","name":"梁平区","parentcode":"500000"},{"postcode":"405400","name":"开县区","parentcode":"500000"},{"postcode":"408000","name":"涪陵区","parentcode":"500000"},{"postcode":"500100","name":"重庆市","parentcode":"500000"}]},{"postcode":"510000","name":"四川省","nameen":"EN","children":[{"postcode":"500236","name":"奉节市","parentcode":"510000"},{"postcode":"500382","name":"合川市","parentcode":"510000"},{"postcode":"510100","name":"成都市","parentcode":"510000"},{"postcode":"510121","name":"金堂市","parentcode":"510000"},{"postcode":"510122","name":"双流市","parentcode":"510000"},{"postcode":"510124","name":"郫县市","parentcode":"510000"},{"postcode":"510129","name":"大邑市","parentcode":"510000"},{"postcode":"510131","name":"蒲江市","parentcode":"510000"},{"postcode":"510132","name":"新津市","parentcode":"510000"},{"postcode":"510181","name":"都江堰市","parentcode":"510000"},{"postcode":"510182","name":"彭州市","parentcode":"510000"},{"postcode":"510183","name":"邛崃市","parentcode":"510000"},{"postcode":"510184","name":"崇州市","parentcode":"510000"},{"postcode":"510300","name":"自贡市","parentcode":"510000"},{"postcode":"510321","name":"荣县市","parentcode":"510000"},{"postcode":"510322","name":"富顺市","parentcode":"510000"},{"postcode":"510400","name":"攀枝花市","parentcode":"510000"},{"postcode":"510500","name":"泸州市","parentcode":"510000"},{"postcode":"510521","name":"泸县市","parentcode":"510000"},{"postcode":"510522","name":"合江市","parentcode":"510000"},{"postcode":"510524","name":"叙永市","parentcode":"510000"},{"postcode":"510600","name":"德阳市","parentcode":"510000"},{"postcode":"510623","name":"中江市","parentcode":"510000"},{"postcode":"510626","name":"罗江市","parentcode":"510000"},{"postcode":"510681","name":"广汉市","parentcode":"510000"},{"postcode":"510682","name":"什邡市","parentcode":"510000"},{"postcode":"510683","name":"绵竹市","parentcode":"510000"},{"postcode":"510700","name":"绵阳市","parentcode":"510000"},{"postcode":"510722","name":"三台市","parentcode":"510000"},{"postcode":"510781","name":"江油市","parentcode":"510000"},{"postcode":"510800","name":"广元市","parentcode":"510000"},{"postcode":"510821","name":"旺苍市","parentcode":"510000"},{"postcode":"510822","name":"青川市","parentcode":"510000"},{"postcode":"510824","name":"苍溪市","parentcode":"510000"},{"postcode":"510900","name":"遂宁市","parentcode":"510000"},{"postcode":"510921","name":"蓬溪市","parentcode":"510000"},{"postcode":"510922","name":"射洪市","parentcode":"510000"},{"postcode":"511000","name":"内江市","parentcode":"510000"},{"postcode":"511024","name":"威远市","parentcode":"510000"},{"postcode":"511025","name":"资中市","parentcode":"510000"},{"postcode":"511028","name":"隆昌市","parentcode":"510000"},{"postcode":"511100","name":"乐山市","parentcode":"510000"},{"postcode":"511124","name":"井研市","parentcode":"510000"},{"postcode":"511133","name":"马边市","parentcode":"510000"},{"postcode":"511181","name":"峨眉山市","parentcode":"510000"},{"postcode":"511300","name":"南充市","parentcode":"510000"},{"postcode":"511321","name":"南部市","parentcode":"510000"},{"postcode":"511322","name":"营山市","parentcode":"510000"},{"postcode":"511323","name":"蓬安市","parentcode":"510000"},{"postcode":"511324","name":"仪陇市","parentcode":"510000"},{"postcode":"511325","name":"西充市","parentcode":"510000"},{"postcode":"511381","name":"阆中市","parentcode":"510000"},{"postcode":"511400","name":"眉山市","parentcode":"510000"},{"postcode":"511421","name":"仁寿市","parentcode":"510000"},{"postcode":"511422","name":"彭山市","parentcode":"510000"},{"postcode":"511423","name":"洪雅市","parentcode":"510000"},{"postcode":"511500","name":"宜宾市","parentcode":"510000"},{"postcode":"511524","name":"长宁市","parentcode":"510000"},{"postcode":"511528","name":"兴文市","parentcode":"510000"},{"postcode":"511529","name":"屏山市","parentcode":"510000"},{"postcode":"511600","name":"广安市","parentcode":"510000"},{"postcode":"511621","name":"岳池市","parentcode":"510000"},{"postcode":"511622","name":"武胜市","parentcode":"510000"},{"postcode":"511681","name":"华蓥市","parentcode":"510000"},{"postcode":"511700","name":"达州市","parentcode":"510000"},{"postcode":"511721","name":"达县市","parentcode":"510000"},{"postcode":"511722","name":"宣汉市","parentcode":"510000"},{"postcode":"511723","name":"开江市","parentcode":"510000"},{"postcode":"511724","name":"大竹市","parentcode":"510000"},{"postcode":"511725","name":"渠县市","parentcode":"510000"},{"postcode":"511781","name":"万源市","parentcode":"510000"},{"postcode":"511800","name":"雅安市","parentcode":"510000"},{"postcode":"511821","name":"名山市","parentcode":"510000"},{"postcode":"511823","name":"汉源市","parentcode":"510000"},{"postcode":"511824","name":"石棉市","parentcode":"510000"},{"postcode":"511900","name":"巴中市","parentcode":"510000"},{"postcode":"511923","name":"平昌市","parentcode":"510000"},{"postcode":"512000","name":"资阳市","parentcode":"510000"},{"postcode":"512081","name":"简阳市","parentcode":"510000"},{"postcode":"513200","name":"阿坝藏族羌族自治州","parentcode":"510000"},{"postcode":"513221","name":"汶川市","parentcode":"510000"},{"postcode":"513223","name":"茂县市","parentcode":"510000"},{"postcode":"513224","name":"松潘市","parentcode":"510000"},{"postcode":"513232","name":"若尔盖市","parentcode":"510000"},{"postcode":"513233","name":"红原市","parentcode":"510000"},{"postcode":"513300","name":"甘孜藏族自治州","parentcode":"510000"},{"postcode":"513321","name":"康定市","parentcode":"510000"},{"postcode":"513400","name":"凉山彝族自治州","parentcode":"510000"},{"postcode":"513401","name":"西昌市","parentcode":"510000"},{"postcode":"513437","name":"雷波市","parentcode":"510000"}]},{"postcode":"520000","name":"贵州省","nameen":"EN","children":[{"postcode":"520100","name":"贵阳市","parentcode":"520000"},{"postcode":"520181","name":"清镇市","parentcode":"520000"},{"postcode":"520200","name":"六盘水市","parentcode":"520000"},{"postcode":"520300","name":"遵义市","parentcode":"520000"},{"postcode":"520381","name":"赤水市","parentcode":"520000"},{"postcode":"520382","name":"仁怀市","parentcode":"520000"},{"postcode":"520400","name":"安顺市","parentcode":"520000"},{"postcode":"520500","name":"毕节市","parentcode":"520000"},{"postcode":"520600","name":"铜仁市","parentcode":"520000"},{"postcode":"522300","name":"黔西南布依族苗族自治州","parentcode":"520000"},{"postcode":"522301","name":"兴义市","parentcode":"520000"},{"postcode":"522600","name":"黔东南苗族侗族自治州","parentcode":"520000"},{"postcode":"522601","name":"凯里市","parentcode":"520000"},{"postcode":"522700","name":"黔南布依族苗族自治州","parentcode":"520000"},{"postcode":"522701","name":"都匀市","parentcode":"520000"},{"postcode":"522702","name":"福泉市","parentcode":"520000"},{"postcode":"550000","name":"小河市","parentcode":"520000"},{"postcode":"550025","name":"花溪市","parentcode":"520000"},{"postcode":"550100","name":"罗甸市","parentcode":"520000"},{"postcode":"550300","name":"开阳市","parentcode":"520000"},{"postcode":"550400","name":"瓮安市","parentcode":"520000"},{"postcode":"550600","name":"惠水市","parentcode":"520000"},{"postcode":"551100","name":"息烽市","parentcode":"520000"},{"postcode":"551200","name":"龙里市","parentcode":"520000"},{"postcode":"551700","name":"毕节地区","parentcode":"520000"},{"postcode":"551800","name":"金沙市","parentcode":"520000"},{"postcode":"552100","name":"织金市","parentcode":"520000"},{"postcode":"552400","name":"安龙市","parentcode":"520000"},{"postcode":"553100","name":"威宁市","parentcode":"520000"},{"postcode":"553200","name":"赫章市","parentcode":"520000"},{"postcode":"553300","name":"纳雍市","parentcode":"520000"},{"postcode":"553500","name":"盘县市","parentcode":"520000"},{"postcode":"554100","name":"松桃市","parentcode":"520000"},{"postcode":"554600","name":"大方市","parentcode":"520000"},{"postcode":"555100","name":"石阡市","parentcode":"520000"},{"postcode":"556100","name":"黄平市","parentcode":"520000"},{"postcode":"556700","name":"锦屏市","parentcode":"520000"},{"postcode":"557300","name":"黎平市","parentcode":"520000"},{"postcode":"557500","name":"丹寨市","parentcode":"520000"},{"postcode":"558200","name":"独山市","parentcode":"520000"},{"postcode":"558400","name":"荔波市","parentcode":"520000"},{"postcode":"561100","name":"平坝市","parentcode":"520000"},{"postcode":"561200","name":"镇宁市","parentcode":"520000"},{"postcode":"563200","name":"桐梓市","parentcode":"520000"},{"postcode":"563300","name":"绥阳市","parentcode":"520000"},{"postcode":"563400","name":"正安市","parentcode":"520000"},{"postcode":"563500","name":"道真市","parentcode":"520000"},{"postcode":"564100","name":"湄潭市","parentcode":"520000"},{"postcode":"564200","name":"凤冈市","parentcode":"520000"},{"postcode":"564400","name":"余庆市","parentcode":"520000"},{"postcode":"564600","name":"习水市","parentcode":"520000"},{"postcode":"565100","name":"思南市","parentcode":"520000"},{"postcode":"565200","name":"德江市","parentcode":"520000"},{"postcode":"565300","name":"沿河市","parentcode":"520000"}]},{"postcode":"530000","name":"云南省","nameen":"EN","children":[{"postcode":"500103","name":"潞西市","parentcode":"530000"},{"postcode":"530100","name":"昆明市","parentcode":"530000"},{"postcode":"530121","name":"呈贡市","parentcode":"530000"},{"postcode":"530122","name":"晋宁市","parentcode":"530000"},{"postcode":"530127","name":"嵩明市","parentcode":"530000"},{"postcode":"530130","name":"盘龙市","parentcode":"530000"},{"postcode":"530181","name":"安宁市","parentcode":"530000"},{"postcode":"530300","name":"曲靖市","parentcode":"530000"},{"postcode":"530324","name":"罗平市","parentcode":"530000"},{"postcode":"530325","name":"富源市","parentcode":"530000"},{"postcode":"530381","name":"宣威市","parentcode":"530000"},{"postcode":"530400","name":"玉溪市","parentcode":"530000"},{"postcode":"530423","name":"通海市","parentcode":"530000"},{"postcode":"530500","name":"保山市","parentcode":"530000"},{"postcode":"530522","name":"腾冲市","parentcode":"530000"},{"postcode":"530600","name":"昭通市","parentcode":"530000"},{"postcode":"530700","name":"丽江市","parentcode":"530000"},{"postcode":"530800","name":"普洱市","parentcode":"530000"},{"postcode":"530821","name":"普洱哈尼族彝族自治县","parentcode":"530000"},{"postcode":"530829","name":"西盟佤族自治县","parentcode":"530000"},{"postcode":"530900","name":"临沧市","parentcode":"530000"},{"postcode":"532300","name":"楚雄彝族自治州","parentcode":"530000"},{"postcode":"532301","name":"楚雄市","parentcode":"530000"},{"postcode":"532329","name":"武定市","parentcode":"530000"},{"postcode":"532500","name":"红河哈尼族彝族自治州","parentcode":"530000"},{"postcode":"532501","name":"个旧市","parentcode":"530000"},{"postcode":"532502","name":"开远市","parentcode":"530000"},{"postcode":"532503","name":"蒙自市","parentcode":"530000"},{"postcode":"532524","name":"建水市","parentcode":"530000"},{"postcode":"532526","name":"弥勒市","parentcode":"530000"},{"postcode":"532529","name":"红河市","parentcode":"530000"},{"postcode":"532532","name":"河口瑶族自治县","parentcode":"530000"},{"postcode":"532600","name":"文山壮族苗族自治州","parentcode":"530000"},{"postcode":"532601","name":"文山市","parentcode":"530000"},{"postcode":"532627","name":"广南市","parentcode":"530000"},{"postcode":"532628","name":"富宁市","parentcode":"530000"},{"postcode":"532800","name":"西双版纳傣族自治州","parentcode":"530000"},{"postcode":"532801","name":"景洪市","parentcode":"530000"},{"postcode":"532823","name":"勐腊市","parentcode":"530000"},{"postcode":"532900","name":"大理白族自治州","parentcode":"530000"},{"postcode":"532901","name":"大理市","parentcode":"530000"},{"postcode":"532924","name":"宾川市","parentcode":"530000"},{"postcode":"533100","name":"德宏傣族景颇族自治州","parentcode":"530000"},{"postcode":"533102","name":"瑞丽市","parentcode":"530000"},{"postcode":"533103","name":"芒市","parentcode":"530000"},{"postcode":"533300","name":"怒江傈僳族自治州","parentcode":"530000"},{"postcode":"533400","name":"迪庆藏族自治州","parentcode":"530000"},{"postcode":"533421","name":"香格里拉市","parentcode":"530000"},{"postcode":"674100","name":"玉龙纳西族自治县","parentcode":"530000"},{"postcode":"830824","name":"景谷傣族彝族自治县","parentcode":"530000"}]},{"postcode":"540000","name":"西藏自治区","nameen":"EN","children":[{"postcode":"540100","name":"拉萨市","parentcode":"540000"},{"postcode":"540121","name":"林周市","parentcode":"540000"},{"postcode":"540122","name":"当雄市","parentcode":"540000"},{"postcode":"540124","name":"曲水市","parentcode":"540000"},{"postcode":"540125","name":"堆龙德庆市","parentcode":"540000"},{"postcode":"540126","name":"达孜市","parentcode":"540000"},{"postcode":"540127","name":"墨竹市","parentcode":"540000"},{"postcode":"542100","name":"昌都地区","parentcode":"540000"},{"postcode":"542200","name":"山南地区","parentcode":"540000"},{"postcode":"542227","name":"措美市","parentcode":"540000"},{"postcode":"542228","name":"洛扎市","parentcode":"540000"},{"postcode":"542229","name":"加查市","parentcode":"540000"},{"postcode":"542231","name":"隆子市","parentcode":"540000"},{"postcode":"542232","name":"错那市","parentcode":"540000"},{"postcode":"542300","name":"日喀则地区","parentcode":"540000"},{"postcode":"542301","name":"日喀则市","parentcode":"540000"},{"postcode":"542322","name":"南木林市","parentcode":"540000"},{"postcode":"542323","name":"江孜市","parentcode":"540000"},{"postcode":"542324","name":"定日市","parentcode":"540000"},{"postcode":"542330","name":"仁布市","parentcode":"540000"},{"postcode":"542400","name":"那曲地区","parentcode":"540000"},{"postcode":"542423","name":"比如市","parentcode":"540000"},{"postcode":"542428","name":"班戈市","parentcode":"540000"},{"postcode":"542500","name":"阿里地区","parentcode":"540000"},{"postcode":"542523","name":"噶尔市","parentcode":"540000"},{"postcode":"542526","name":"改则市","parentcode":"540000"},{"postcode":"542600","name":"林芝地区","parentcode":"540000"},{"postcode":"542625","name":"波密市","parentcode":"540000"}]},{"postcode":"610000","name":"陕西省","nameen":"EN","children":[{"postcode":"610100","name":"西安市","parentcode":"610000"},{"postcode":"610124","name":"周至市","parentcode":"610000"},{"postcode":"610125","name":"户县市","parentcode":"610000"},{"postcode":"610126","name":"高陵市","parentcode":"610000"},{"postcode":"610200","name":"铜川市","parentcode":"610000"},{"postcode":"610300","name":"宝鸡市","parentcode":"610000"},{"postcode":"610323","name":"岐山市","parentcode":"610000"},{"postcode":"610324","name":"扶风市","parentcode":"610000"},{"postcode":"610326","name":"眉县市","parentcode":"610000"},{"postcode":"610400","name":"咸阳市","parentcode":"610000"},{"postcode":"610403","name":"杨凌市","parentcode":"610000"},{"postcode":"610422","name":"三原市","parentcode":"610000"},{"postcode":"610423","name":"泾阳市","parentcode":"610000"},{"postcode":"610424","name":"乾县市","parentcode":"610000"},{"postcode":"610427","name":"彬县市","parentcode":"610000"},{"postcode":"610481","name":"兴平市","parentcode":"610000"},{"postcode":"610500","name":"渭南市","parentcode":"610000"},{"postcode":"610521","name":"华县市","parentcode":"610000"},{"postcode":"610523","name":"大荔市","parentcode":"610000"},{"postcode":"610526","name":"蒲城市","parentcode":"610000"},{"postcode":"610527","name":"白水市","parentcode":"610000"},{"postcode":"610528","name":"富平市","parentcode":"610000"},{"postcode":"610581","name":"韩城市","parentcode":"610000"},{"postcode":"610582","name":"华阴市","parentcode":"610000"},{"postcode":"610600","name":"延安市","parentcode":"610000"},{"postcode":"610625","name":"志丹市","parentcode":"610000"},{"postcode":"610629","name":"洛川市","parentcode":"610000"},{"postcode":"610632","name":"黄陵市","parentcode":"610000"},{"postcode":"610700","name":"汉中市","parentcode":"610000"},{"postcode":"610722","name":"城固市","parentcode":"610000"},{"postcode":"610723","name":"洋县市","parentcode":"610000"},{"postcode":"610725","name":"勉县市","parentcode":"610000"},{"postcode":"610727","name":"略阳市","parentcode":"610000"},{"postcode":"610728","name":"镇巴市","parentcode":"610000"},{"postcode":"610800","name":"榆林市","parentcode":"610000"},{"postcode":"610821","name":"神木市","parentcode":"610000"},{"postcode":"610822","name":"府谷市","parentcode":"610000"},{"postcode":"610824","name":"靖边市","parentcode":"610000"},{"postcode":"610825","name":"定边市","parentcode":"610000"},{"postcode":"610826","name":"绥德市","parentcode":"610000"},{"postcode":"610830","name":"清涧市","parentcode":"610000"},{"postcode":"610900","name":"安康市","parentcode":"610000"},{"postcode":"610921","name":"汉阴市","parentcode":"610000"},{"postcode":"610928","name":"旬阳市","parentcode":"610000"},{"postcode":"611000","name":"商洛市","parentcode":"610000"},{"postcode":"611024","name":"山阳市","parentcode":"610000"}]},{"postcode":"620000","name":"甘肃省","nameen":"EN","children":[{"postcode":"620100","name":"兰州市","parentcode":"620000"},{"postcode":"620200","name":"嘉峪关市","parentcode":"620000"},{"postcode":"620300","name":"金昌市","parentcode":"620000"},{"postcode":"620400","name":"白银市","parentcode":"620000"},{"postcode":"620500","name":"天水市","parentcode":"620000"},{"postcode":"620600","name":"武威市","parentcode":"620000"},{"postcode":"620700","name":"张掖市","parentcode":"620000"},{"postcode":"620800","name":"平凉市","parentcode":"620000"},{"postcode":"620900","name":"酒泉市","parentcode":"620000"},{"postcode":"620981","name":"玉门市","parentcode":"620000"},{"postcode":"620982","name":"敦煌市","parentcode":"620000"},{"postcode":"621000","name":"庆阳市","parentcode":"620000"},{"postcode":"621100","name":"定西市","parentcode":"620000"},{"postcode":"621200","name":"陇南市","parentcode":"620000"},{"postcode":"622900","name":"临夏回族自治州","parentcode":"620000"},{"postcode":"622901","name":"临夏市","parentcode":"620000"},{"postcode":"623000","name":"甘南藏族自治州","parentcode":"620000"},{"postcode":"623001","name":"合作市","parentcode":"620000"},{"postcode":"730030","name":"城关市","parentcode":"620000"},{"postcode":"730100","name":"榆中市","parentcode":"620000"},{"postcode":"730300","name":"永登市","parentcode":"620000"},{"postcode":"730400","name":"景泰市","parentcode":"620000"},{"postcode":"730500","name":"临洮市","parentcode":"620000"},{"postcode":"730600","name":"靖远市","parentcode":"620000"},{"postcode":"731300","name":"广河市","parentcode":"620000"},{"postcode":"731400","name":"东乡市","parentcode":"620000"},{"postcode":"731600","name":"永靖市","parentcode":"620000"},{"postcode":"733200","name":"天祝市","parentcode":"620000"},{"postcode":"733300","name":"民勤市","parentcode":"620000"},{"postcode":"734500","name":"民乐市","parentcode":"620000"},{"postcode":"735300","name":"金塔市","parentcode":"620000"},{"postcode":"737100","name":"金川市","parentcode":"620000"},{"postcode":"737200","name":"永昌市","parentcode":"620000"},{"postcode":"741200","name":"甘谷市","parentcode":"620000"},{"postcode":"742300","name":"徽县市","parentcode":"620000"},{"postcode":"743400","name":"静宁市","parentcode":"620000"},{"postcode":"744300","name":"泾川市","parentcode":"620000"},{"postcode":"744500","name":"镇原市","parentcode":"620000"},{"postcode":"745002","name":"西峰市","parentcode":"620000"},{"postcode":"745100","name":"庆城市","parentcode":"620000"},{"postcode":"745600","name":"华池市","parentcode":"620000"},{"postcode":"745700","name":"环县市","parentcode":"620000"},{"postcode":"746000","name":"武都市","parentcode":"620000"},{"postcode":"747000","name":"甘南市","parentcode":"620000"},{"postcode":"747400","name":"迭部市","parentcode":"620000"},{"postcode":"748100","name":"陇西市","parentcode":"620000"}]},{"postcode":"630000","name":"青海省","nameen":"EN","children":[{"postcode":"630100","name":"西宁市","parentcode":"630000"},{"postcode":"630123","name":"湟源市","parentcode":"630000"},{"postcode":"632100","name":"海东地区","parentcode":"630000"},{"postcode":"632121","name":"平安市","parentcode":"630000"},{"postcode":"632122","name":"民和回族土族自治县","parentcode":"630000"},{"postcode":"632126","name":"互助土族自治县","parentcode":"630000"},{"postcode":"632200","name":"海北藏族自治州","parentcode":"630000"},{"postcode":"632221","name":"门源回族自治县","parentcode":"630000"},{"postcode":"632300","name":"黄南藏族自治州","parentcode":"630000"},{"postcode":"632321","name":"同仁市","parentcode":"630000"},{"postcode":"632500","name":"海南藏族自治州","parentcode":"630000"},{"postcode":"632524","name":"兴海市","parentcode":"630000"},{"postcode":"632600","name":"果洛藏族自治州","parentcode":"630000"},{"postcode":"632700","name":"玉树藏族自治州","parentcode":"630000"},{"postcode":"632800","name":"海西蒙古族藏族自治州","parentcode":"630000"},{"postcode":"632801","name":"格尔木市","parentcode":"630000"},{"postcode":"632802","name":"德令哈市","parentcode":"630000"},{"postcode":"810100","name":"大通市","parentcode":"630000"},{"postcode":"810700","name":"乐都市","parentcode":"630000"},{"postcode":"810900","name":"化隆市","parentcode":"630000"},{"postcode":"811600","name":"湟中市","parentcode":"630000"},{"postcode":"811700","name":"贵德市","parentcode":"630000"},{"postcode":"813000","name":"共和市","parentcode":"630000"},{"postcode":"814000","name":"果洛市","parentcode":"630000"},{"postcode":"815000","name":"玉树市","parentcode":"630000"},{"postcode":"816100","name":"都兰市","parentcode":"630000"}]},{"postcode":"640000","name":"宁夏回族自治区","nameen":"EN","children":[{"postcode":"640100","name":"银川市","parentcode":"640000"},{"postcode":"640181","name":"灵武市","parentcode":"640000"},{"postcode":"640200","name":"石嘴山市","parentcode":"640000"},{"postcode":"640300","name":"吴忠市","parentcode":"640000"},{"postcode":"640381","name":"青铜峡市","parentcode":"640000"},{"postcode":"640400","name":"固原市","parentcode":"640000"},{"postcode":"640500","name":"中卫市","parentcode":"640000"},{"postcode":"750100","name":"永宁市","parentcode":"640000"},{"postcode":"750200","name":"贺兰市","parentcode":"640000"},{"postcode":"751300","name":"同心市","parentcode":"640000"},{"postcode":"751500","name":"盐池市","parentcode":"640000"},{"postcode":"753400","name":"平罗市","parentcode":"640000"},{"postcode":"755200","name":"海原市","parentcode":"640000"},{"postcode":"756200","name":"西吉市","parentcode":"640000"}]},{"postcode":"650000","name":"新疆维吾尔自治区","nameen":"EN","children":[{"postcode":"650100","name":"乌鲁木齐市","parentcode":"650000"},{"postcode":"650200","name":"克拉玛依市","parentcode":"650000"},{"postcode":"652100","name":"吐鲁番地区","parentcode":"650000"},{"postcode":"652101","name":"吐鲁番市","parentcode":"650000"},{"postcode":"652122","name":"鄯善市","parentcode":"650000"},{"postcode":"652200","name":"哈密地区","parentcode":"650000"},{"postcode":"652201","name":"哈密市","parentcode":"650000"},{"postcode":"652300","name":"昌吉回族自治州","parentcode":"650000"},{"postcode":"652301","name":"昌吉市","parentcode":"650000"},{"postcode":"652302","name":"阜康市","parentcode":"650000"},{"postcode":"652303","name":"米泉市","parentcode":"650000"},{"postcode":"652323","name":"呼图壁市","parentcode":"650000"},{"postcode":"652324","name":"玛纳斯市","parentcode":"650000"},{"postcode":"652325","name":"奇台市","parentcode":"650000"},{"postcode":"652327","name":"吉木萨尔市","parentcode":"650000"},{"postcode":"652700","name":"博尔塔拉蒙古自治州","parentcode":"650000"},{"postcode":"652701","name":"博乐市","parentcode":"650000"},{"postcode":"652800","name":"巴音郭楞蒙古自治州","parentcode":"650000"},{"postcode":"652801","name":"库尔勒市","parentcode":"650000"},{"postcode":"652823","name":"尉犁市","parentcode":"650000"},{"postcode":"652900","name":"阿克苏地区","parentcode":"650000"},{"postcode":"652901","name":"阿克苏市","parentcode":"650000"},{"postcode":"652923","name":"库车市","parentcode":"650000"},{"postcode":"653000","name":"克孜勒苏柯尔克孜自治州","parentcode":"650000"},{"postcode":"653001","name":"阿图什市","parentcode":"650000"},{"postcode":"653100","name":"喀什地区","parentcode":"650000"},{"postcode":"653101","name":"喀什市","parentcode":"650000"},{"postcode":"653130","name":"巴楚市","parentcode":"650000"},{"postcode":"653200","name":"和田地区","parentcode":"650000"},{"postcode":"653201","name":"和田市","parentcode":"650000"},{"postcode":"654000","name":"伊犁哈萨克自治州","parentcode":"650000"},{"postcode":"654002","name":"伊宁市","parentcode":"650000"},{"postcode":"654003","name":"奎屯市","parentcode":"650000"},{"postcode":"654023","name":"霍城市","parentcode":"650000"},{"postcode":"654024","name":"巩留市","parentcode":"650000"},{"postcode":"654025","name":"新源市","parentcode":"650000"},{"postcode":"654200","name":"塔城地区","parentcode":"650000"},{"postcode":"654201","name":"塔城市","parentcode":"650000"},{"postcode":"654202","name":"乌苏市","parentcode":"650000"},{"postcode":"654221","name":"额敏市","parentcode":"650000"},{"postcode":"654223","name":"沙湾市","parentcode":"650000"},{"postcode":"654226","name":"和不克赛尔蒙古自治县","parentcode":"650000"},{"postcode":"654300","name":"阿勒泰地区","parentcode":"650000"},{"postcode":"654301","name":"阿勒泰市","parentcode":"650000"},{"postcode":"654323","name":"福海市","parentcode":"650000"},{"postcode":"659001","name":"石河子市","parentcode":"650000"},{"postcode":"659002","name":"阿拉尔市","parentcode":"650000"},{"postcode":"659003","name":"图木舒克市","parentcode":"650000"},{"postcode":"659004","name":"五家渠市","parentcode":"650000"},{"postcode":"843000","name":"阿克苏地区 阿克苏市","parentcode":"650000"}]},{"postcode":"999077","name":"香港市","nameen":"HongKong","children":[{"postcode":"999077","name":"香港市","parentcode":"999077"}]}]